category_title,business_name,address,city,state,zip_code,display_phone
Caterers, ¡Qué Paella! , , Orlando, FL,32860,(407) 633-0205
Dance Schools, A & E Ballroom Dance World ,117 Sadie Dr, Matthews, NC,28105,(704) 814-8907
Florists, A Little Shop of Flowers ,2421 18th St NW, Washington, DC,20009,(202) 387-7255
Medical Transportation, A Medical Transportation , , Miami, FL,33126,(305) 979-0788
Venues & Event Spaces, A Party Place Rentals ,2326 Babcock Blvd, Pittsburgh, PA,15237,(412) 931-4970
Dance Studios, A Perfect Wedding Dance ,10120 W Flamingo Rd, Las Vegas, NV,89147,(702) 242-6400
Wedding Planning, A Southern Soiree ,851 Washington St, Raleigh, NC,27605,(919) 925-0632
Party & Event Planning, A Swanky Affair , , Durham, NC,27715,(919) 308-5825
Party & Event Planning, A Swanky Affair , , Durham, NC,27715,(919) 308-5825
Magicians, A Taste Of Magic ,733 9th Ave, Manhattan, NY,10019,(559) 862-4424
Party Equipment Rentals, A To Z Party Rental ,426 Stump Rd, Montgomeryville, PA,18936,(215) 646-6777
Party Equipment Rentals, A To Z Party Rental ,426 Stump Rd, Montgomeryville, PA,18936,(215) 646-6777
Limos, A Touch of Class Transportation ,232 E Chatham St, CARY, NC,27511,(919) 612-0226
Travel Services, A Way To Go Travel ,4526 West Wendover Ave, Greensboro, NC,27409,(336) 855-0060
Performing Arts, A-Marika Dance ,10831 Sharondale Rd, Cincinnati, OH,45241,(513) 769-0409
Blow Dry/Out Services, A'La Mode Salon & Company ,7519 3rd Ave, Brooklyn, NY,11209,(718) 491-1100
Insurance, AAA - Montford Dr ,1812 Montford Dr, Charlotte, NC,28209,(704) 319-0280
Insurance, AAA - Pisgah Church Rd ,306 Pisgah Church Rd, Greensboro, NC,27455,(336) 544-0841
Party Equipment Rentals, AAble Rents ,1365 Chardon Rd, Euclid, OH,44117,(216) 692-9800
Party Equipment Rentals, Aaro Rental Centers ,2246 Two Notch Rd, Columbia, SC,29204,(803) 256-8220
Event Photography, Aaron Watson Photography , , Charlottesville, VA,22911,(434) 202-8031
DJs, Aaron's Mobile DJ & Karaoke Service , , Hickory, NC,28601,(828) 270-8622
Dance Studios, Aatma Dance Studio ,3308 Laventure Dr, Atlanta, GA,30341,(404) 984-4482
Party Supplies, ABC Rental Center ,6514 Pearl Rd, Cleveland, OH,44130,(440) 886-0018
Hair Removal, aboutFACE Brow Lounge ,11914 Elm Ln, Charlotte, NC,28277,(704) 891-5297
Magicians, Abracadabra Entertainment , , Roseville, MI,48066,(248) 802-0007
Performing Arts, Absolute Dance Company ,33640 Pin Oak Pkwy, Avon Lake, OH,44012,(440) 315-5678
Pilates, Absolute Pilates ,6707 Fairview Rd, Charlotte, NC,28210,(704) 442-8600
Gyms, acac Fitness & Wellness ,110 W Timonium Rd, Baltimore, MD,21093,(410) 453-9111
Performing Arts, Academy Ballroom Atlanta ,800 Miami Cir NE, Atlanta, GA,30324,(404) 846-3201
Party Equipment Rentals, ACME Brooklyn ,350 Meserole St, BROOKLYN, NY,11206,(347) 529-6158
Videographers, ACS Sound & Lighting ,110 Lott Ct, West Columbia, SC,29169,(803) 791-7200
DJs, Active Entertainment ,516 N 4th St, Wilmington, NC,28401,(910) 294-0395
Party Equipment Rentals, Adorn Vintage Rentals and Events ,10655 Richmond Ave, Houston, TX,77042,(713) 702-0820
Party Equipment Rentals, Adorn Vintage Rentals and Events ,10655 Richmond Ave, Houston, TX,77042,(713) 702-0820
Magicians, Adrian Gagnon , , Fort Mill, SC,29715,(803) 322-6068
Limos, Affordable Limousines Fort Worth ,6900 South Fwy, Fort Worth, TX,76134,(817) 204-9032
Dance Studios, AFV Exotic Arts ,1709 E Central Ave, Charlotte, NC,28205,(704) 770-7376
Limos, Agency Limousine & Coach ,500 Throckmorton St, Fort Worth, TX,76102,(817) 277-5466
Airport Shuttles, Airport Star Shuttle , , Atlanta, GA,30337,(770) 653-8873
Airport Shuttles, Airport Super Express ,1135 SW 13th St, Miami, FL,33129,(305) 910-0110
Preschools, Alenka Your Learning Kids Academy ,2622 S Ferncreek Ave, Orlando, FL,32806,(407) 910-7351
Photographers, Alexa's Photography , , Greensboro, NC,27410,(336) 402-1087
Event Photography, Alexander South NC , , Charlotte, NC,28202,(980) 226-2785
Party & Event Planning, Alina Moleta Event Planning & Design ,11455 SW 40th St, Miami, FL,33165,(305) 338-8323
DJs, All About You Entertainment ,404 E Oglethorpe Ave, Savannah, GA,31401,(912) 897-0518
DJs, All Access DJ ,14934 Webb Chapel Rd, Farmers Branch, TX,75234,(972) 982-2243
DJs, All Around Raleigh DJ ,851 Washington St, Raleigh, NC,27605,(919) 757-8296
DJs, All Around Raleigh DJ ,851 Washington St, Raleigh, NC,27605,(919) 757-8296
Florists, All Blooming Florist ,2615 Oak Lawn Ave, Dallas, TX,75219,(214) 238-3283
Party Equipment Rentals, All Borough Party Rentals ,75 Van Dam St, Brooklyn, NY,11222,(718) 349-7990
Limos, All Fayette Limo And Transportation ,5143 Jones Cir, Atlanta, GA,30349,(770) 256-1430
Clowns, All Occasion Performers ,1425 Stagecoach Dr, Richardson, TX,75080,(972) 889-7777
Party Equipment Rentals, All Occasions Party Rental ,72 Wilson Rd, Eighty Four, PA,15102,(724) 745-1500
Travel Agents, All Seasons Travel & Cruise ,2523 University Blvd W, Jacksonville, FL,32217,(904) 731-3101
Performing Arts, All Stars Performing Arts Academy ,5700 Cumming Hwy, Sugar Hill, GA,30518,(678) 400-0091
Travel Agents, All Ways Travel ,2401 Douglas Rd, Miami, FL,33145,(305) 448-9987
Limos, All-Points Personal Transportation ,1775 E International Dr, Raleigh, NC,27560,(919) 836-9900
Florists, Allan Woods Flowers ,2645 Connecticut Ave NW, Washington, DC,20008,(202) 332-3334
Magicians, Allen He, the Magician , , New York,10019,(646) 239-7525
Dance Studios, Allure Orlando ,2419 E South St, Orlando, FL,32803,(407) 519-2005
Dance Studios, Aloha Style on the Main Line ,105 Forrest Ave, Narberth, PA,19072,(610) 667-4852
Advertising, Already Gear ,6960 Marvin D Love Fwy, Dallas, TX,75237,(214) 333-0180
Travel Services, ALTOUR American Express ,3384 Peachtree Rd NE, Atlanta, GA,30326,(404) 262-7561
Travel Services, ALTOUR American Express ,23 Old Country Rd, Carle Place, NY,11514,(516) 228-2376
Performing Arts, Always Ballroom ,552 Wilmington Ave, Dayton, OH,45420,(937) 256-2626
Session Photography, Amanda Faith Photography , , Copperas Cove, TX,76522,(540) 309-1195
Session Photography, Amanda Maglione Photography , , Charlottesville, VA,22902,(434) 227-3544
Performing Arts, Amaze Me Sonu ,106 N Denton Tap Rd, Coppell, TX,75019,(469) 288-2084
Magicians, Amazing Nebo the Magician ,3171 Minerva Lake Rd, Columbus, OH,43231,(614) 890-2277
Magicians, Amazing Shaner Magick ,6825 E US Rt, Tipp City, OH,45377,(937) 813-0209
Gyms, American Family Fitness Swift Creek ,4751 Brad McNeer Pkwy, Midlothian, VA,23112,(804) 763-1111
Party & Event Planning, American Party Rentals ,3633 S Alston Ave, Durham, NC,27713,(919) 544-1555
Party & Event Planning, American Party Rentals ,3633 S Alston Ave, Durham, NC,27713,(919) 544-1555
Party & Event Planning, American Party Rentals ,3633 S Alston Ave, Durham, NC,27713,(919) 544-1555
Party & Event Planning, American Party Rentals ,3633 S Alston Ave, Durham, NC,27713,(919) 544-1555
Taxis, American Transportation ,1134 Kissimmee St, Tallahassee, FL,32310,(850) 228-9669
Airport Shuttles, American Transportation & Limo Services ,3319 NW 74th Ave, Miami, FL,33122,(305) 885-5002
Travel Services, Amigos International Travel ,2110 SW 122nd Ave, Miami, FL,33175,(305) 593-8044
Party & Event Planning, An Event to Remember by Cool Chicks,14890 SW 93rd Ct, Miami, FL,33176,(786) 352-9327
Makeup Artists, Anny Chow Makeup ,113 W 7th St, Vancouver, WA,98660,(917) 365-4617
Florists, Antonio Flowers & Gifts ,5901 SW 8th St, West Miami, FL,33144,(305) 261-6566
Dance Studios, Applause Dance Studio ,6100 S Orange Ave, Orlando, FL,32809,(407) 858-5299
Florists, Apples to Zinnias ,4024 Villanova St, Dallas, TX,75225,(214) 361-2200
Travel Services, April Powers Travel ,10130 Perimeter Pkwy, Charlotte, NC,28216,(704) 817-4414
Florists, Aranjira Flower Shop ,16 E 32nd St, New York, NY,10016,(908) 342-6071
Gyms, Arena District Athletic Club ,325 John H McConnell Blvd, Columbus, OH,43215,(614) 461-7785
Limos, Arlington Black Car , , Arlington, TX,76013,(214) 733-9970
Limos, Arrow Transportation , , New York, NY,10020,(718) 392-4060
Dance Studios, Art In Motion Dance & Fitness ,5360 Route 42, Blackwood, NJ,8012,(856) 245-7170
Dance Studios, Art In Motion Dance & Fitness ,5360 Route 42, Blackwood, NJ,8012,(856) 245-7170
Dance Studios, Arthur Murray ,10792 Montgomery Rd, Cincinnati, OH,45242,(513) 791-9100
Dance Studios, Arthur Murray Dance Center ,2615 George Busbee Pkwy, Kennesaw, GA,30144,(770) 514-7772
Dance Schools, Arthur Murray Dance Center ,17 Prestige Plaza Dr, Miamisburg, OH,45342,(937) 291-2000
Dance Schools, Arthur Murray Dance Center Clermont ,2400 S US Hwy 27, Clermont, FL,34711,(407) 417-0032
Dance Schools, Arthur Murray Dance Centers ,7127 Liberty Centre Dr, West Chester, OH,45069,(513) 759-5959
Dance Schools, Arthur Murray Dance Centers - Charlotte ,14815 Ballantyne Village Way, Charlotte, NC,28277,(704) 544-0222
Dance Studios, Arthur Murray Dance Centers Orlando ,6700 Conroy-windermere Rd, Orlando, FL,32835,(407) 290-5441
Dance Studios, Arthur Murray Dance Centers Waterford Lakes ,2504 S Alafaya Trl, Orlando, FL,32828,(407) 270-5910
Dance Studios, Arthur Murray Dance Centers Winter Park ,5562 Lake Howell Rd, Winter Park, FL,32792,(407) 915-4609
Dance Schools, Arthur Murray Dance Studio ,7855 Northpoint Pkwy, Alpharetta, GA,30009,(678) 795-9854
Dance Studios, Arthur Murray Dance Studio ,840 Currency Cir, Lake Mary, FL,32746,(407) 444-4950
Dance Studios, Arthur Murray Dance Studio ,5371 N High St, Columbus, OH,43214,(614) 847-7541
Dance Studios, Arthur Murray Dance Studio ,6800 York Rd, Baltimore, MD,21212,(410) 377-8884
Dance Studios, Arthur Murray Dance Studio Coral Gables ,2916 Ponce De Leon Blvd, Coral Gables, FL,33134,(305) 444-6136
Dance Studios, Arthur Murray School of Dancing ,19930 W Catawba Ave, Cornelius, NC,28031,(704) 895-5575
Caterers, Arthur's Catering ,860 Sunshine Ln, Altamonte Springs, FL,32714,(407) 331-1993
Art Schools, Arts+ ,345 N College St, Charlotte, NC,28202,(704) 377-4187
Florists, Artsy Flora Floral Boutique ,145 E 72nd St, New York, NY,10021,(212) 472-3796
Event Photography, Ashley & David Photography , , Raleigh, NC,27601,(910) 502-0860
Makeup Artists, Ashley Watts Beauty ,4920 Windy Hill Dr, Raliegh, NC,27609,(336) 618-7675
DJs, Astro Entertainment ,1115 Independence Blvd, Virginia Beach, VA,23455,(757) 460-2224
Dance Studios, At Time To Dance Performing Arts Education ,6776 Corwin Ave, Waynesville, OH,45068,(513) 629-0655
DJs, ATG Entertainment ,3950 Campus Ridge Rd, Matthews, NC,28105,(704) 537-9300
Limos, Atl One Limo ,2265 Roswell Rd, Atlanta, GA,30062,(404) 944-0646
Opera & Ballet, Atlanta Ballet ,1695 Marietta Blvd NW, Atlanta, GA,30318,(404) 873-5811
Performing Arts, Atlanta Belly Dance ,1394 McLendon Ave NE, Atlanta, GA,30307,(404) 638-6530
Performing Arts, Atlanta Bellydance Center ,2977 E Ponce De Leon Ave, Decatur, GA,30030,(678) 636-9333
Kickboxing, Atlanta Kick Karate & Kickboxing ,764 Miami Cir NE, Atlanta, GA,30324,(404) 352-1140
Comedy Clubs, Atlanta Magic Theater ,267 Marietta St NW, Atlanta, GA,30313,(925) 984-6504
Comedy Clubs, Atlanta Magic Theater ,267 Marietta St NW, Atlanta, GA,30313,(925) 984-6504
Party & Event Planning, Atlanta Party People , , Atlanta, GA,30324,(678) 431-7465
Taxis, Atlanta Taxi Cab Service ,837 Clifton Heights Ln NE, Atlanta, GA,30329,(404) 935-9555
DJs, Atlantic Premier Entertainment ,18 S Water St, Wilmington, NC,28401,(910) 367-1726
Venues & Event Spaces, Atlantis Hall ,91-42 Lefferts Blvd, Richmond Hill, NY,11418,(718) 501-9988
Party Supplies, Atlas Party Rentals ,554 S Columbus Ave, Mount Vernon, NY,10550,(914) 636-6431
Session Photography, Austin Personalized Photography , , Apex, NC,27539,(347) 452-9362
Makeup Artists, Authentic Beauty ,4674 Roswell Rd NE, Atlanta, GA,30342,(404) 849-0443
Event Photography, Autumn Harrison Photography ,3708 Benson Dr, Raleigh, NC,27609,(919) 824-4848
Hair Salons, Aveda Arts & Sciences Institute - Atlanta ,1745 Peachtree St NE, Atlanta, GA,30309,(877) 892-8332
Limos, Avenue Chauffeured Transportation ,210 N Church St, Charlotte, NC,28202,(704) 750-5466
Travel Agents, Avondale Travel ,3657 Saint Johns Ave, Jacksonville, FL,32205,(904) 513-3000
Dance Studios, Awakenings Pole Dance Fitness ,3901 B Main St, Philadelphia, PA,19127,(484) 800-1807
Performing Arts, Backstage Dance Studio ,7185 Columbia Gateway Dr, Columbia, MD,21046,(410) 312-0900
Party Equipment Rentals, Backyard Tent Rental , , Watertown, MA,2451,(617) 393-5001
Party Equipment Rentals, Backyard Tent Rental , , Watertown, MA,2451,(617) 393-5001
Performing Arts, Ballantyne School of Music ,11318 N Community House Rd, Charlotte, NC,28277,(980) 819-6998
Party & Event Planning, Balloon Craft - Miami ,9211 SW 40th St, Miami, FL,33165,(786) 808-1696
Balloon Services, Balloons & Tunes ,208 W Main St, Carrboro, NC,27510,(919) 967-3433
Dance Studios, Ballroom Avenue , , Columbus, OH,43215,(630) 244-4703
Dance Studios, Ballroom Bliss ,1336 Kater St, Philadelphia, PA,19147,(215) 804-9024
Dance Schools, Ballroom by Bill ,166 S Dupont Hwy, New Castle, DE,19720,(302) 388-7640
Dance Schools, Ballroom Philadelphia ,1207 Gerritt St, Philadelphia, PA,19147,(267) 712-9522
Dance Studios, Ballroom Revolution ,354 Cayuga Rd, Cheektowaga, NY,14225,(716) 391-2102
Dance Studios, Ballroom Wedding Dance ,240 West 37th St, New York, NY,10018,(917) 375-3027
Jazz & Blues, Bar Belly ,14 B Orchard St, New York, NY,10002,(917) 488-0943
Session Photography, Barbara Badetti Palumbo Photography , , Long Island, NY,11101,(631) 374-1017
Session Photography, Barbara Badetti Palumbo Photography , , Long Island, NY,11101,(631) 374-1017
Session Photography, Barbara Badetti Palumbo Photography , , Long Island, NY,11101,(631) 374-1017
Party & Event Planning, Barbara Greene Events,10760 SW 104th Ave, Miami, FL,33176,(305) 215-3285
Wedding Planning, Baxter's Creative Events , , Virginia Beach, VA,23453,(757) 470-1735
Travel Services, Bayside Travel ,69 Pondfield Rd, Bronxville, NY,10708,(914) 833-8880
Pole Dancing Classes, Be Fitness ,10400 Clifton Blvd, Cleveland, OH,44102,(216) 227-9710
Arts & Crafts, Beads & Bubbly ,409 E Main St, Richmond, VA,23219,(202) 780-5808
Photo Booth Rentals, Bearded Brothers Events ,2603 NW 13th St, Gainesville, FL,32609,(352) 310-9040
Makeup Artists, Beautini ,267 5th Ave, New York, NY,10016,(212) 235-7060
Makeup Artists, Beauty Artistry ,320 N 1st St, Jacksonville Beach, FL,32250,(904) 204-3135
Makeup Artists, Beauty Asylum Hair & Makeup , , Charlotte, NC,28208, 
Makeup Artists, Beauty By Anh ,2810 Winter Rose Ct, Atlanta, GA,30360,(678) 936-5055
Hair Stylists, Beauty by Myly ,1882 25th Avenue, Issaquah, WA,98029,(202) 996-0444
Dance Studios, Beginning Ballroom - Real Dancing for Real People ,412 Evesham Ave, Baltimore, MD,21212,(410) 231-3262
Session Photography, Bella Vista Photography , , Raleigh, NC,27614,(919) 307-9054
Performing Arts, Bellywood Studios ,10325 Orangewood Plz, Orlando, FL,32821,(321) 663-8326
Performing Arts, Bembe' - Cuban Salsa Dancing ,500 W William Cannon Dr, Austin, TX,78745,(404) 539-8774
Limos, Beni Limousines ,38-20 32nd St, Queens, NY,11101,(888) 464-2364
Party Equipment Rentals, Berbank Events - Rentals & Design ,208 E Daniel Morgan Ave, Spartanburg, SC,29302,(864) 598-9354
Caterers, Best Impressions Caterers ,2600 Youngblood St, Charlotte, NC,28203,(704) 333-9779
Travel Services, Bethesda Travel Center ,4422 E W Hwy, Bethesda, MD,20814,(301) 656-1670
Notaries, Better Business Promotion Solutions Group ,14681 Midway Rd, Addison, TX,75001,(877) 489-9689
Caterers, Beyond The Box Catering ,2544 West Commerce St, Dallas, TX,75212,(214) 828-2228
Florists, Big Apple Florist ,228 E 45th St, New York, NY,10017,(212) 687-5904
Party Bus Rentals, Big Ben Transportation ,9805 63 Rd, Rego Park, NY,11374,(347) 653-0425
Party Bus Rentals, Big Ben Transportation ,9805 63 Rd, Rego Park, NY,11374,(347) 653-0425
Venues & Event Spaces, Big Chill ,911 E Morehead St, Charlotte, NC,28204,(704) 347-4447
Party Equipment Rentals, Big Dawg Party Rentals ,74 Bowne St, New York, NY,11231,(718) 643-9019
Caterers, Big Girl's Catering ,6151 N Main St, Acworth, GA,30101,(404) 702-6402
Photography Stores & Services, Biggs Camera Digital Imaging ,805 S Kings Dr, Charlotte, NC,28204,(704) 347-3501
Magicians, BigJoeyMagicShowy ,4613 N University Dr, Coral Springs, FL,33067,(954) 609-3019
Barre Classes, BikeorBar ,904 Elmwood Ave, Buffalo, NY,14222,(716) 417-6602
Food Delivery Services, Billiam's Cafe & Catering ,104 W Ballentine St, Holly Springs, NC,27540,(443) 631-6400
Party & Event Planning, Birthday Bottle Service , , New York, NY,10016,(646) 450-4127
Magicians, Birthday Magician Captain Kid ,8019 Atamasco Cir, Raleigh, NC,27616,(919) 355-8367
Party & Event Planning, Birthdays and Bottles ,11 Cornelia St, New York, NY,10014,(646) 525-8450
Party & Event Planning, Birthdays and Bottles ,11 Cornelia St, New York, NY,10014,(646) 525-8450
Martial Arts, BJJ Coach Oviedo ,119 Geneva Dr, Oviedo, FL,32765,(407) 365-7722
Town Car Service, Black Diamond Limousine CLT ,7421 Honey Flower Pl, Charlotte, NC,28214,(980) 729-9674
Makeup Artists, Black Diamond MUA ,3109 ST CLAIR DR NE, Atlanta, GA,30329,(323) 845-2423
Party Equipment Rentals, Black Pearl Party Tents ,9 Bittner St, Pittsburgh, PA,15223,(412) 407-2778
DJs, Black Tie Entertainment , , Hickory, NC,28601,(828) 754-3548
Wedding Planning, Blissful Planners ,9911 Oakbrook Dr, Charlotte, NC,28210,(704) 247-7175
Hair Salons, Blo ,8451 Brier Creek Pkwy, Raleigh, NC,27617,(919) 484-8600
Blow Dry/Out Services, Blo Blow Dry Bar ,2850 Selwyn Ave, Charlotte, NC,28209,(704) 375-7110
Blow Dry/Out Services, Blo Blow Dry Bar ,3700 Vision Dr, Fort Worth, TX,76109,(817) 818-4256
Blow Dry/Out Services, Blo Blow Dry Bar ,6751 N MacArthur Blvd, Irving, TX,75039,(972) 872-8701
Blow Dry/Out Services, Blo Blow Dry Bar ,329 N Magnolia Ave, Orlando, FL,32801,(321) 800-6672
Blow Dry/Out Services, Blo Blow Dry Bar ,9210 San Jose Blvd, Jacksonville, FL,32257,(904) 253-3368
Blow Dry/Out Services, Blo Out ,1518 E 3rd St, Charlotte, NC,28204,(704) 376-2009
Blow Dry/Out Services, Blown Away Blow Dry Bar ,201 Park At North Hills St, Raleigh, NC,27609,(984) 232-8806
Tapas/Small Plates, Blue Atlas ,1000 Carlisle Ave, Richmond, VA,23231,(804) 554-0258
Music Production Services, Blue Bamboo Music ,1905 Kentucky Ave, Winter Park, FL,32789,(407) 636-9951
Venues & Event Spaces, Blue Hill Event Center at Extraordinary Ventures ,200 S Elliott Rd, Chapel Hill, NC,27514,(919) 928-5718
Venues & Event Spaces, Blue Hill Event Center at Extraordinary Ventures ,200 S Elliott Rd, Chapel Hill, NC,27514,(919) 928-5718
Travel Agents, Blue Ribbon Travel ,2890 Hempstead Tpke, Levittown, NY,11756,(516) 500-3600
Dance Schools, BlueBallroom Dance Studio ,1601 Concord Pike, Wilmington, DE,19803,(302) 984-2583
Dance Schools, BlueBallroom Dance Studio ,1601 Concord Pike, Wilmington, DE,19803,(302) 984-2583
Florists, Blumengarten , , Dallas, TX,75225,(214) 361-5100
Makeup Artists, Blushbaby Lash & Makeup Studio ,2295 Peachtree Rd NE, Atlanta, GA,30309,(404) 549-7086
DJs, Bobby B Entertainment , , Chesapeake, VA,23320,(757) 343-0911
Face Painting, Bobby the Clown's Party Animals ,663 Orangewood Dr, Virginia Beach, VA,23453,(757) 424-1288
Nutritionists, Body & Soul Transformations ,8012 Transit Rd, Williamsville, NY,14221, 
Yoga, Body Alive Fitness ,8110 Montgomery Rd, Cincinnati, OH,45236,(513) 337-9830
Travel Services, BONITA  TRAVELS ,12034 University City Blvd, Harrisburg, NC,28075,(704) 455-7400
Session Photography, Bonnie J Heath Photography ,283 Kirkwood Rd NE, Atlanta, GA,30317,(404) 313-3030
Florists, Bookout Blooms ,2000 South Blvd, Charlotte, NC,28203,(980) 219-8470
Furniture Rental, Boston Throne Chairs ,7 Marble St, Whitman, MA,2382,(508) 417-8336
Furniture Rental, Boston Throne Chairs ,7 Marble St, Whitman, MA,2382,(508) 417-8336
Lounges, Bowery Electric ,327 Bowery St, New York, NY,10003,(212) 228-0228
Gyms, Brace Family YMCA ,3127 Weddington Rd, Matthews, NC,28105,(704) 716-4200
Magicians, Braden Daniels -  Magician ,316 S Main St, Mansfield, TX,76063,(682) 422-4766
DJs, Bravo Sound ,2523 Astoria Blvd, Astoria, NY,11102,(718) 777-6543
DJs, Bravo Sound ,2523 Astoria Blvd, Astoria, NY,11102,(718) 777-6543
Party & Event Planning, Brenda's Costume Magic & Novelty ,105 Industrial Ave, Greensboro, NC,27406,(336) 574-1925
Party Supplies, Brendle Rentals ,485 N Eastern Blvd, Montgomery, AL,36117,(334) 279-7368
Gyms, Brick Bodies ,2430 Broad Ave, Lutherville-timonium, MD,21093,(410) 252-5280
Travel Services, Brickell Travel Management ,66 W Flagler St, Miami, FL,33130,(305) 856-8889
Hair Salons, Brilon Salon ,127 W Main St, Lewisville, TX,75057,(214) 513-9654
Event Photography, Brittany Wages , , Atlanta, GA,30301,(678) 925-2341
Bowling, Brooklyn Bowl ,61 Wythe Ave, Brooklyn, NY,11249,(718) 963-3369
Venues & Event Spaces, Brooklyn Party Space ,833 Dean St, Brooklyn, NY,11238,(917) 569-0145
Travel Agents, Bru Med Travel ,6557 Coral Way, Miami, FL,33155,(305) 262-1727
Makeup Artists, Brushworx , , Brookwood, GA,30309,(678) 468-2127
Magicians, Bryan Saint , , Matthews, NC,28105, 
Magicians, Bryan Saint , , Matthews, NC,28105, 
DJs, BTA Entertainment ,417 Elsmore Dr, New Bern, NC,28562,(800) 985-2821
Florists, Buckhead Blooms ,3175 Roswell Rd, Atlanta, GA,30305,(404) 266-2400
Florists, Buckhead Florist ,3333 Peachtree Rd NE, Atlanta, GA,30326,(404) 266-7426
Travel Agents, Buford International Travel ,2000 Clearview Ave, Atlanta, GA,30340,(770) 451-1212
Cideries, Bull City Ciderworks - Cary ,210 E Chatham St, Cary, NC,27511,(919) 377-2401
Caterers, Bully Taco Catering , , Dallas, TX,75201,(214) 874-1555
DJs, Bunn DJ Company ,302 Jefferson St, Raleigh, NC,27605,(919) 785-9001
DJs, Bunn DJ Company ,2920 W Broad St, Richmond, VA,23230,(804) 299-4618
DJs, Bunn DJ Company - Charlotte ,118E W A St, Kannapolis, NC,28081,(704) 494-7333
Art Classes, BW Community Arts School ,611 W Bagley Rd, Berea, OH,44017,(440) 826-2365
Dance Studios, By The Sea Ballroom & Latin Dance Studio ,1145 Robert M Grissom Pkwy, Myrtle Beach, SC,29577,(800) 299-9050
Florists, Byrum's Florist ,2329 The Plz, Charlotte, NC,28205,(704) 377-3685
Bus Stations, C K Steele Plaza - StarMetro , South Adams St, Tallahassee, FL,32301, 
Caterers, Cafe Danielle Catering and Events , , Dallas, TX,75209,(214) 288-8088
Performing Arts, Cain Park ,14591 Superior Rd, Cleveland Heights, OH,44118,(216) 371-3000
Session Photography, Caleb Keiter Photography , , Mechanicsville, VA,23111,(804) 298-6070
Performing Arts, Calo Gitano Flamenco Dance Company ,1963 Hosea L Williams R, Atlanta, GA,30317,(404) 966-1347
Specialty Food, Calvert Woodley Fine Wines & Spirits ,4339 Connecticut Ave NW, Washington, DC,20008,(202) 966-4400
Session Photography, Camera Artistry Photography ,2908 Oak Hill Dr, Copperas Cove, TX,76522,(254) 547-3980
Florists, Candler Park Flower Mart ,1395 McLendon Ave NE, Atlanta, GA,30307,(404) 522-0005
Taxis, Capital City Transportation,2614 Old Bainbridge Rd, Tallahassee, FL,32303,(850) 544-3582
Venues & Event Spaces, Capitale ,130 Bowery, New York, NY,10013,(212) 334-5500
Videographers, Captured By Elle ,924 N Magnolia Ave, Orlando, FL,32803, 
Party & Event Planning, Carey Ann's Clown Caravan , , Riverview, MI,48218,(734) 285-3492
Child Care & Day Care, Carl E. Sanders Family YMCA at Buckhead ,1160 Moores Mill Rd NW, Atlanta, GA,30327,(404) 350-9292
Florists, Carlton's Flowers ,612 W Peace St, Raleigh, NC,27605,(919) 821-3862
Caterers, Carnival Catering , , Flower Mound, TX,75028,(214) 532-6106
Dance Studios, Caro Wellness Center ,5858 West Flagler St, Miami, FL,33144,(305) 699-8555
Limos, Carolina Car Service ,1736 Laurel Park Pl, Cary, NC,27511,(919) 951-8357
Festivals, Carolina Country Music Fest ,812 N Ocean Blvd, Myrtle Beach, SC,29577,(704) 358-1004
Session Photography, Carolyn Scott Photography , , Durham, NC,27713,(919) 807-1763
Event Photography, Carrie Stroud Photography , , Cary, NC,27519,(206) 743-1553
Magicians, Carroll Baker & Co ,4420 Hickory Wood Dr, Columbus, OH,43228,(614) 989-0480
Florists, Cary Florist ,100 Parkthrough St, Cary, NC,27511,(919) 694-1600
Venues & Event Spaces, Casa Wynwood ,150 SE 25th Rd, Miami, FL,33129,(305) 400-9715
Caterers, Catering by Design ,132 Kilmayne Dr, Cary, NC,27511,(919) 481-2366
Caterers, Catering Works ,2319 Laurelbrook St, Raleigh, NC,27604,(919) 828-5932
Party & Event Planning, CCB Events , , Dallas, TX, ,(214) 717-1987
Party Equipment Rentals, CE Rental ,4300 Craftsman Dr, Raleigh, NC,27609,(919) 833-9743
Party Equipment Rentals, CE Rental ,4300 Craftsman Dr, Raleigh, NC,27609,(919) 833-9743
Dance Studios, Celebrity Ballroom Dance Studios ,2727 Canton Rd, Marietta, GA,30066,(678) 653-8003
DJs, Celebrity Radio DJs ,14419 Michaux Wood Way, Richmond, VA,23220,(804) 377-3535
Event Photography, Celestial Sights Photography , , Charlottesville, VA,22936,(434) 466-2241
Customized Merchandise, CEMO Promotions ,3523 Edgewood Ave, Richmond, VA,23222,(804) 221-7214
Performing Arts, Center For Puppetry Arts ,1404 Spring St NW, Atlanta, GA,30309,(404) 873-3391
Dance Studios, Center Stage Dance Studio ,10211 Northfield Rd, Northfield, OH,44067,(330) 467-1414
Dance Studios, Center Stage Dance Studio ,4837 Union Rd, Buffalo, NY,14225,(716) 634-3395
Caterers, certé ,20 W 55th St, New York, NY,10019,(212) 397-2020
Town Car Service, CES Transportation , , Charlotte, NC,28214,(704) 605-9152
Performing Arts, Cesar Domico - Magician ,8546 Palm Pkwy, Orlando, FL,32836,(813) 298-0496
Dance Studios, Challenge Aerial ,464 Cherokee Ave, Atlanta, GA,30312, 
Party Characters, Characters ,411 Westbury Dr, Chapel Hill, NC,27516,(919) 646-6215
Makeup Artists, Charivari & Co ,154W 27th St, New York, NY,10001,(415) 404-8254
Performing Arts, Charles Bach Wonders Theatre ,1320 Celebrity Cir, Myrtle Beach, SC,29577,(843) 286-5003
Event Photography, CharlesMedia Photography ,2223 N Church St, Greensboro, NC,27405,(336) 756-7427
Venues & Event Spaces, Charlotte Convention Center ,501 S College St, Charlotte, NC,28202,(704) 339-6000
Dance Studios, Charlotte Latin Dance ,4038 Old Pineville Rd, Charlotte, NC,28217,(704) 707-4016
Tours, Charlotte NC Tours ,101 S Tryon St, Charlotte, NC,28202,(704) 962-4548
Party Equipment Rentals, Charlotte Party Rentals ,724 Montana Dr, Charlotte, NC,28216,(704) 377-5867
Pilates, Charlotte Pilates ,725 Providence Rd, Charlotte, NC,28207,(704) 737-5435
Magicians, Chee Chee The Clown , , Hancock, NY,13783,(607) 637-5633
Caterers, Chef Alyssa's Kitchen ,4001-C Yancey Rd, Charlotte, NC,28217,(704) 817-7568
Caterers, Chef Brown Catering , , Lawrenceville, GA,30046,(678) 948-8006
Caterers, Chef Henry Catering ,1050 Devore Ln, Matthews, NC,28105,(704) 491-4948
Personal Chefs, Chefkelvin Catering ,830 N John Young Pkwy, Kissimmee, FL,34741,(407) 449-2258
Event Photography, Chellise Michael Photography ,199 Cook St, Brooklyn, NY,11206,
Performing Arts, Chester Performing Arts Studio ,4500 W Hundred Rd, Chester, VA,23831,(804) 768-0023
DJs, Choice Entertainment ,501 S 14th St, Richmond, VA,23219,(804) 788-4603
Event Photography, Chris Bavaria Photography , , Richmond, VA,23220,(717) 877-9752
Event Photography, Christy Whitehead Photography ,514 Chaffee Point Blvd, Jacksonville, FL,32221,(904) 891-0359
Performing Arts, Chrysler Hall ,201 E Brambleton Ave, Norfolk, VA,23510,(757) 664-6464
Performing Arts, Chrysler Hall ,201 E Brambleton Ave, Norfolk, VA,23510,(757) 664-6464
Dance Schools, Cincinnati Ballroom Company ,4409 Brazee St, Cincinnati, OH,45209,(513) 321-2801
Performing Arts, Cincinnati Circus Company ,6433 Wiehe Rd, Cincinnati, OH,45237,(513) 921-5454
Dance Studios, Cincinnati Contra Dancers ,322 Wyoming Ave, Cincinnati, OH,45215,(513) 681-4768
Trainers, Cincinnati Sports Club ,3950 Red Bank Rd, Cincinnati, OH,45227,(513) 527-4000
Magicians, Cincinnati's FUN-tastic Magician, Charlie Cadabra , Cincinnati, OH,45255,(513) 702-4400
Magicians, Cincinnati's FUN-tastic Magician, Charlie Cadabra , Cincinnati, OH,45255,(513) 702-4400
Travel Services, CIRE Travel - Vacations & Business Travel ,1460 Broadway, New York, NY,10036,(212) 339-2957
Travel Services, CIRE Travel - Vacations & Business Travel ,1460 Broadway, New York, NY,10036,(212) 339-2957
Travel Agents, CIRE Travel - Washington, DC ,1875 Connecticut Ave NW, Washington,20009,(212) 339-2917
Soccer, City Futsal ,1224 S Cesar Chavez Blvd, Dallas, TX,75201,(214) 382-0274
Taxis, City Taxi ,811 Mabry St, Tallahassee, FL,32304,(850) 575-7575
DJs, CJ Sound , , West Seneca, NY,14224,(716) 668-5412
Venues & Event Spaces, Clarkston Community Center ,3701 College Ave, Clarkston, GA,30021,(404) 508-1050
Trophy Shops, Classic Achievements ,4208 South Blvd, Charlotte, NC,28209,(980) 819-9176
Limos, Classic Limo & Sedan Service ,1720 Capital Cir SW, Tallahassee, FL,32310,(850) 421-1933
Video/Film Production, Clear Story Studio ,1931 Sidney St, Pittsburgh, PA,15203,(412) 488-1931
Dance Studios, Cleveland Eclectic Dance ,3635 Perkins Ave, Cleveland, OH,44114,(440) 941-7653
Dance Studios, Cleveland Salsa Passion ,3637 S Green Rd, Beachwood, OH,44122,(216) 385-6096
Fitness & Instruction, Cleveland Skating Club ,2500 Kemper Rd, Cleveland, OH,44120,(216) 791-2800
DJs, Climactic Entertainment Dj Service ,815 Heart Wood Loop Rd NE, Leland, NC,28451,(910) 622-6451
Rock Climbing, Climb Cleveland ,2190 Professor Ave, Cleveland, OH,44113,(216) 906-4186
Limos, Cloud Limousine Private Car Service , , Atlanta, GA,30309,(678) 723-5466
Gyms, Club Fitness ,11108 S Tryon St, Charlotte, NC,28273,(704) 295-7900
Talent Agencies, CMT Agency ,1417 Dutch Valley Pl NE, Atlanta, GA,30324,(404) 233-4644
Food Trucks, CockADoodleMoo , , Raleigh, NC,27609,(984) 269-8420
Caterers, Cocktail Caterers ,416 West 23rd St, New York, NY,10011,(646) 331-9191
Party & Event Planning, Cocktails Catering ,9640 Boggy Creek Rd, Orlando, FL,32824,(407) 446-2878
Blow Dry/Out Services, Coffee & Hair - Blow Dry Bar ,6576 SW Bird Rd, Miami, FL,33155,(305) 915-4485
Caterers, Cohost , , Dallas, TX,75226,(214) 775-0822
Dance Studios, Columbus Dance Center ,640 Lakeview Plz, Worthington, OH,43085,(614) 759-0502
Performing Arts, Comedy Kids Magic ,1030 N Rogers Ln, Raleigh, NC,27610,(919) 391-8113
Performing Arts, Comedy Kids Magic ,1030 N Rogers Ln, Raleigh, NC,27610,(919) 391-8113
Comedy Clubs, Comedy Magic Cabaret ,843 William Hilton Pkwy, Hilton Head Island, SC,29928,(843) 681-7757
Party & Event Planning, Comedy Zone Worldwide ,1000 Nc Music Factory Blvd, Charlotte, NC,28269,(704) 295-4242
Limos, Comfort Drive ,157 Tollerton Ave, Saint Johns, FL,32259,(305) 766-1379
Makeup Artists, Conceptual Beauty ,1400 Irving St NW, Washington, DC,20010,(202) 412-9628
DJs, Cone Entertanment ,106 E Main St, Spring Hope, NC,27882,(919) 576-7109
Performing Arts, Confetti Eddie's Magic Palor ,823 Exposition Ave, Dallas, TX,75226,(214) 558-7145
Travel Services, Connoisseur Travel ,2440 Virginia Ave NW, Washington, DC,20037,(855) 469-8998
Dance Studios, Controla Dance Academy ,714 Reed St, Philadelphia, PA,19147,(215) 550-1318
Party Equipment Rentals, Cooke Rentals ,18518 Statesville Rd, Cornelius, NC,28031,(704) 896-0553
Caterers, Cooking With A Star ,3645 Marketplace Blvd, East Point, GA,30344,(678) 813-3663
Magicians, Cool Hand Magic, by Geoff Lloyd , Durham, NC,27713,(919) 403-3537
Party & Event Planning, Copy Cats For Kids , , Atlanta, GA,30303,(770) 424-2287
Party & Event Planning, Copy Cats For Kids , , Atlanta, GA,30303,(770) 424-2287
Florists, Coral Gables Florist ,1825 Ponce De Leon Blvd, Coral Gables, FL,33134,(305) 663-0272
Performing Arts, Core Dance ,133 Sycamore St, Decatur, GA,30030,(404) 373-4154
Transportation, Cortrans Shuttle Service , , Lake Buena Vista, FL,32830,(407) 446-3896
Candy Stores, Cotton Candy Factory ,21 North Main St, Belmont, NC,28012,(704) 825-0416
Travel Services, Court Travel ,119 Brevard Ct, Charlotte, NC,28202,(704) 372-4231
Tours, Covington Travel ,4800 Cox Rd, Glen Allen, VA,23060,(804) 747-7077
Travel Services, Covington Travel ,1021 E Cary St, Richmond, VA,23219,(804) 344-3244
Child Care & Day Care, Cowart Family-Ashford Dunwoody YMCA ,3692 Ashford Dunwoody Rd NE, Atlanta, GA,30319,(770) 451-9622
Dance Studios, Creative Cardio ,700 Hooper Ave, Toms River, NJ,8753,(732) 600-1410
Party Equipment Rentals, Creative Impressions ,657 Flatbush Ave, Brooklyn, NY,11225,(718) 462-7471
Session Photography, Cristina Sullivan Photography , , Miami, FL,33176,(305) 282-4398
Travel Services, Crossroads Travel ,1901 Huguenot Rd, Richmond, VA,23235,(804) 794-7700
Travel Services, Cruise Center World Travel ,11362 San Jose Blvd, Jacksonville, FL,32223,(904) 260-3401
DJs, Crush Entertainment , , Hilton Head Island, SC,29928,(414) 617-8916
DJs, Crystal Sound and Magic DJ , , Winterville, NC,28590,(252) 320-3664
DJs, Crystal Sound and Magic DJ , , Winterville, NC,28590,(252) 320-3664
DJs, Curated MC/DJ Services , , Dallas, TX,75201,(972) 839-7026
Food Trucks, Curbside Chef , , Orlando, FL,32868,(858) 699-7744
Cards & Stationery, Cutie Patootie Creations ,4011 Stanbury Dr, Matthews, NC,28104,(704) 776-0738
Web Design, D Media ,5307 E Mockingbird Ln, Dallas, TX,75206,(972) 747-9070
Hair Salons, d' Artiste Salon ,9700 Medlock Bridge Rd, Duluth, GA,30097,(770) 680-4410
Caterers, D&S Catering ,2261 Crown Rd, Dallas, TX,75229,(469) 583-7404
Travel Services, Dadeland Travel Management Group ,7950 NW 53rd St, Doral, FL,33166,(305) 717-6720
DJs, Dallas Event Audio , , Dallas, TX,75202,(469) 430-8102
Performing Arts, Dallas Puppet Theater ,3905 Main St, Dallas, TX,75226,(214) 515-0004
Limos, Dallas Sprinter & Limo , , Dallas, TX,75201,(469) 781-6747
Dance Studios, Damian and Sarah Tango ,1630 S 19th St, Philadelphia, PA,19145,(503) 729-2362
Event Photography, Dan Harris PhotoArt ,1124 Riviera St, Jacksonville, FL,32207,(904) 398-7668
Airport Shuttles, Dana's Limousine and Transportation Service ,10220 New Berlin Rd, Jacksonville, FL,32226,(904) 744-3333
Dance Studios, Dance & Artistic Expressions Studio ,6350 Frederick Rd, Catonsville, MD,21228,(410) 744-1193
Dance Schools, Dance Annapolis ,135 Delaware Ave, Glen Burnie, MD,21060,(443) 962-8560
Performing Arts, Dance Center ,5261 Madison Pike, Independence, KY,41051,(859) 356-5560
Dance Schools, Dance Center USA ,855 Gold Hill Rd, Fort Mill, SC,29708,(704) 819-7170
Dance Studios, Dance Connection ,310 Atlantic Ave, Brooklyn, NY,11201,(718) 625-8105
Dance Studios, Dance Destination ,9127 W Broad St, Richmond, VA,23294,(804) 303-9546
Dance Studios, Dance Edge ,1156 Dublin Rd, Grandview Heights, OH,43215,(614) 321-2348
Dance Studios, Dance Etc ,5985 Meijer Dr, Milford, OH,45150,(513) 576-1400
Performing Arts, Dance Haddonfield ,19 Kings Hwy E, Haddonfield, NJ,8033,(856) 429-5355
Dance Studios, Dance Harmony ,11770 Haynes Bridge Rd, Alpharetta, GA,30009,(404) 775-1888
Dance Studios, Dance Masters ,5008 Lakeside Ave, Richmond, VA,23228,(804) 262-9587
Dance Studios, Dance Solutions ,5403 East Dr, Arbutus, MD,21227,(443) 485-5121
Performing Arts, Dance Theatre South ,5832 Fayetteville Rd, Durham, NC,27713,(919) 361-7006
Dance Studios, Dance Tonight Columbus ,155 N 5th St, Columbus, OH,43215,(614) 929-5551
Dance Schools, Dance With Me Buckhead ,3500 Peachtree Rd, Atlanta, GA,30326,(404) 400-1121
Dance Studios, Dance With Me SoHo ,676 Broadway, New York, NY,10012,(212) 840-3262
Performing Arts, Dance Xpress ,313 Iona Ave, Narberth, PA,19072,(610) 668-4645
Dance Studios, Dancefx Atlanta ,8465 Holcomb Bridge Rd, Alpharetta, GA,30022,(770) 645-0110
Performing Arts, Dancesport Academy ,2632 E County Line Rd, Ardmore, PA,19003,(610) 642-2525
Dance Studios, Danceville U.S.A. ,47 E Lincoln St, Columbus, OH,43215,(614) 223-1774
Dance Schools, Dancin' Ballroom & Stage Arts Center ,10700 US 441, Leesburg, FL,34788,(352) 319-6767
Performing Arts, DancinKids Dance Studio ,20700 N Main St, Cornelius, NC,28031,(704) 678-4277
Botanical Gardens, Daniel Stowe Botanical Garden ,6500 S New Hope Rd, Belmont, NC,28012,(704) 825-4490
Magicians, Danny H Magician , , Orlando, FL,32792,(305) 505-4486
Performing Arts, Danza Academy of Social Dance- Philadelphia ,2103 Sansom St, Philadelphia, PA,19103,(215) 561-0323
Dance Studios, Dare To Dance ,11256 Cornell Park Dr, Blue Ash, OH,45242,(513) 407-8137
DJs, Daryl's DJ & Karaoke ,105 Corral Way, Jacksonville, NC,28546,(910) 539-6335
Venues & Event Spaces, Dash Stables Ranch ,4660 Volunteer Rd, Southwest Ranches, FL,33330,(305) 807-1837
Florists, Davenport Florist ,2007 Fairview Rd, Raleigh, NC,27608,(919) 834-0336
Dance Studios, David DeMarie Dance Studios ,8965 Sheridan Dr, Clarence, NY,14031,(716) 510-2531
Party & Event Planning, David Lucas, Comedy Magician ,2941 Battleground Ave, Greensboro, NC,27438
Customized Merchandise, Davis & Stanton Promotions ,1400 S Sherman St, Richardson, TX,75081,(214) 340-1321
Taxis, Day & Night Taxi ,3769 College St, Atlanta, GA,30337,(404) 767-7464
Dance Schools, Daza Dance Ballroom Academy ,3230 Peachtree Rd NE, Atlanta, GA,30305,(404) 537-5222
Party Supplies, Dazzle & Lace , , Raleigh, NC,27603,(919) 662-0018
Party Supplies, Dazzle & Lace , , Raleigh, NC,27603,(919) 662-0018
Party & Event Planning, Dazzle Me Parties ,1630 Northside Dr NW, Atlanta, GA,30318,(404) 603-9466
Hair Salons, DC Artistry Hair & Make-Up Studio ,13 Granite Springs Rd, North Chesterfield, VA,23225,(804) 562-8133
Travel Services, DC Block Girl International , , Washington, DC, DC,20029
Limos, DCAcar , , Washington, DC, DC,20001
Performing Arts, Deans' Duets , , Charlotte, NC,28269,(828) 308-1477
Gyms, Decatur Family YMCA ,1100 Clairemont Ave, Decatur, GA,30030,(404) 377-9622
Performing Arts, Delaware Dance Center ,4571 New Linden Hill Rd, Wilmington, DE,19808,(302) 454-1440
Event Photography, Denis Largeron D C Photography ,1621 T St NW, Washington, DC, DC,20009
Florists, Designs East Florist ,2201 Main St, Dallas, TX,75201,(214) 939-8001
Travel Agents, Destinations by Design Travel Agency ,2107 N Decatur Rd, Decatur, GA,30033,(678) 632-1180
Venues & Event Spaces, Diamond Event Space ,256 Walker St SW, Atlanta, GA,30313,(404) 468-2625
Party Supplies, Dino's Party Center ,1638 S 9th St, Philadelphia, PA,19148,(215) 467-4400
Personal Chefs, Direct Elite Chef Services ,5829 Campbellton Rd., Atlanta, GA,30331,(404) 323-0065
Florists, DIRT Flowers ,417 N Bishop Ave, Dallas, TX,75208,(214) 242-9533
Taxis, Discount Transportation ,2105 Lake Bradford Rd, Tallahassee, FL,32310,(850) 421-8294
Dance Studios, DivaDance ,440 Lafayette St, New York, NY,10003,(646) 450-1440
Dance Studios, DivaDance Sandy Springs ,6080 Sandy Spring Cir, Sandy Springs, GA,30328,(770) 410-8949
Makeup Artists, Divine Eyebrowz ,8315 W Flagler St, Miami, FL,33144,(305) 775-4515
Photo Booth Rentals, Dixieland Photo and Photo Booth Rental , , Clanton, AL,35045,(334) 595-9694
DJs, Dj Alliance ,2033 Buford Hwy NE, Buford, GA,30518,(404) 545-7395
DJs, Dj Bluphi , , Asheville, NC,28715,(336) 324-4500
DJs, Dj Bluphi , , Asheville, NC,28715,(336) 324-4500
DJs, DJ Chevy ,131 Cormorant Way, Savannah, GA,31419,(606) 232-2678
DJs, DJ Gatsby & Dapper Sounds ,115 4th Ave, Manhattan, NY,10003,(516) 967-5138
DJs, DJ Jeff Hickok,3824 Cedar Springs Rd, Dallas, TX,75219,(214) 412-0950
DJs, DJ Johnny Colvard , , Gastonia, NC,28056,(828) 461-1628
DJs, DJ Louie Productions ,131 Hamway Ln, Winder, GA,30680,(770) 262-3931
DJs, DJ Master Key , , Rockledge, FL,32955,(321) 720-0392
DJs, DJ Mike Production ,824 Blaylock Dr, Dallas, TX,75203,(469) 324-9860
DJs, Dj MikeBoogie ,17250 Dallas Pkwy, Dallas, TX,75248,(214) 622-1096
DJs, DJ Piddipat ,1910 Capps St, Durham, NC,27707,(919) 809-9682
DJs, DJ PlayDAT , , Richmond, VA,23219,(434) 378-2246
DJs, Dj Riz Entertainment ,3030 Lbj Frwy, Dallas, TX,75234,(214) 724-3727
DJs, Dj Riz Entertainment ,3030 Lbj Frwy, Dallas, TX,75234,(214) 724-3727
DJs, DJ Robfather , , Mooresville, NC,28115,(704) 762-1024
DJs, DJ Scott Fijolek , , Altamonte Springs, FL,32701,(407) 907-5277
DJs, DJ Zeke Entertainment , , Hempstead, NY,11427,(917) 803-5443
DJs, Djdanceboogie , , Buffalo, NY,14228,(716) 602-3964
DJs, DJS To Go Wedding & Party Pros ,12620-122 Beach Blvd, Jacksonville, FL,32246,(904) 221-1818
Video/Film Production, DMV productions ,3200 16th St NW, Washington, DC,20010,(202) 599-7446
Limos, DnR Limousines ,1324 Euclid Ave, Miami Beach, FL,33139,(786) 564-6054
Travel Services, DO All Travel ,4620 18th Ave, Brooklyn, NY,11204,(718) 972-6000
Discount Store, Dollar Tree ,1515 N Pointe Dr, Durham, NC,27705,(919) 864-4499
Discount Store, Dollar Tree ,404 E Six Forks Rd, Raleigh, NC,27609,(984) 233-2058
Discount Store, Dollar Tree ,1515 N Pointe Dr, Durham, NC,27705,(919) 864-4499
Discount Store, Dollar Tree ,404 E Six Forks Rd, Raleigh, NC,27609,(984) 233-2058
Caterers, Don Paella Catering ,6525 SW 45th St, Miami, FL,33155,(305) 815-8818
Caterers, Donovan's Dish ,800 W Williams St, Apex, NC,27502,(919) 651-8309
Event Photography, Doug Burke Photography ,1150 Revolution Mill Dr, Greensboro, NC,27405,(336) 486-9932
Dance Studios, Down South Swing ,149 Hood Circle Decatur, Decatur, GA,30030,(678) 642-8165
Gyms, Downtown Orlando YMCA Family Center ,433 N Mills Ave, Orlando, FL,32803,(407) 896-6901
Florists, Dr Delphinium Designs & Events ,5806 W Lovers Ln, Dallas, TX,75225,(214) 522-9911
Performing Arts, Drew Thomas Productions Inc ,901 Ctrl Florida Pkwy, Orlando, FL,32824,(407) 856-8384
Limos, Driven Miami ,888 Biscayne Blvd, Miami, FL,33132,(305) 898-4315
Team Building Activities, Drum Team Collective - Rock & Roll Team Building , , Raleigh, NC,27604,(833) 378-6123
Team Building Activities, Drum Team Collective - Rock & Roll Team Building , , Raleigh, NC,27604,(833) 378-6123
Blow Dry/Out Services, Drybar - Fort Worth ,1653 River Run, Fort Worth, TX,76107,(469) 444-1580
Blow Dry/Out Services, Drybar - Jacksonville ,90 Riverside Ave, Jacksonville, FL,32202,(904) 531-3497
Performing Arts, Drygulch ,3145 Walden Ave, Depew, NY,14043,(716) 683-5678
Makeup Artists, Dulcet & Bella Makeup Bar ,2133 Southend Dr, Charlotte, NC,28203,(704) 412-8166
Caterers, Durham Catering Company ,3710 Shannon Rd, Durham, NC,27707,(919) 383-3000
Dance Studios, Dynamic Ballroom ,19625 Bethel Church Rd, Cornelius, NC,28031,(704) 206-9321
Magicians, Dynamike ,8544 Robson St, Detroit, MI,48228,(248) 535-3549
DJs, Dynamite Djs , , Richmond, VA,23230,(804) 427-6000
DJs, Dynasty Weddings ,12 Monroe St, New York, NY,10002,(917) 214-7000
Party Equipment Rentals, Eastern Shore Inflatables ,25341 State Hwy 181, Daphne, AL,36526,(251) 509-2625
Party Equipment Rentals, Ebb Tide Tent & Party Rentals ,400 Melvin Ave, Queenstown, MD,21658,(410) 827-0333
Music Venues, Echostage ,2135 Queens Chapel Rd NE, Washington, DC,20018,(202) 503-2330
French, EDWINS Leadership and Restaurant Institute ,13101 Shaker Sq, Cleveland, OH,44120,(216) 921-3333
Event Photography, Ein Photography And Design ,127 West 30th St, New York, NY,10001,(646) 629-8736
Music Venues, Elan Savannah ,301 Williamson St, Savannah, GA,31401,(912) 662-3526
Pole Dancing Classes, Electric Daisy Fitness ,3495 Delaware Ave, Buffalo, NY,14217,(716) 427-5510
Party Equipment Rentals, Elegantize Productions ,34-18 Northern Blvd, Long Island City, NY,11101,(347) 686-4562
Performing Arts, Elevate Studios ,300 St Laurent St, Longwood, FL,32750,(407) 333-0021
Venues & Event Spaces, Elevator Factory ,437 Memorial Dr SE, Atlanta, GA,30312,(404) 414-9231
Party & Event Planning, Eli's Fun Center ,733 Lee Hwy, Verona, VA,24482,(540) 248-7287
Session Photography, Elicia Bryan Photography , , Atlanta, GA,30311,(404) 827-8139
Boxing, Elite Boxing Fitness Center ,2462 W State Road 426, Oviedo, FL,32765,(407) 230-8235
Party Bus Rentals, Elite Charter Limousine and Shuttle Services ,1100 Peachtree St NE, Atlanta, GA,30309,(404) 702-4899
DJs, Elite Entertainment ,20283 State Rd 7, Boca Raton, FL,33498,(561) 483-4888
Party Bus Rentals, Elite Fleet Party Buses ,1408 N Riverfront Blvd, Dallas, TX,75207,(972) 996-6977
Limos, Elite Transportation ,1737 Carolina Ave, Gotha, FL,34734,(407) 996-7171
Florists, Elizabeth House Flowers ,726 Tyvola Rd, Charlotte, NC,28217,(704) 342-3919
Party Equipment Rentals, Elle Event Rentals ,2825 Miller Ranch Rd, Pearland, TX,77584,(832) 574-3497
Party Equipment Rentals, Elle Event Rentals ,2825 Miller Ranch Rd, Pearland, TX,77584,(832) 574-3497
Session Photography, ElleBelle Photography,2708 Power Mill Ct, Tallahassee, FL,32301,(850) 228-5435
DJs, Elmwood Village Entertainment , , Buffalo, NY,14222,(716) 239-2069
Session Photography, Emerald Photography ,420 Broad St, Jacksonville, FL,32202,(904) 537-3504
Session Photography, Emily Burke Photography , , New York, NY,10018,(845) 750-3283
Wedding Planning, Emily Katherine Events , , Durham, NC,27703,(336) 701-0446
Wedding Planning, Emily Katherine Events , , Durham, NC,27703,(336) 701-0446
Caterers, Empire Eats Catering ,415 Royal St, Raleigh, NC,27607,(919) 582-9470
Dance Studios, En Pointe Danse ,516 E Washington St, Chagrin Falls, OH,44022,(440) 247-5747
Party & Event Planning, Enchanted Events , , Yonkers, NY,10701,(914) 414-1756
Wedding Planning, Encore Entertainment DJ's ,11033 Slenderleaf Dr, Richmond, VA,23060,(540) 259-0995
DJs, Encore Entertainment SATX , , San Antonio, TX,78258,(210) 617-3250
Florists, Eneni's Garden,191 Peachtree St, Atlanta, GA,30303,(404) 522-5500
DJs, Energy Entertainment , , Buffalo, NY,14216,(716) 428-3472
Event Photography, Eric Dean Photography ,2000 Universal Studios Plz, Orlando, FL,32819,(407) 310-4388
Gyms, Esporta Fitness ,3737 Union Rd, Cheektowaga, NY,14225,(716) 391-9110
Performing Arts, Estilo Dance Studio ,2036 Frankford Ave, Philadelphia, PA,19124,(267) 317-8849
Party & Event Planning, ET Events ,7225 SW 48th St, Miami, FL,33155,(305) 342-1286
Travel Agents, Eugene Toriko ,1201 Peachtree St NE, Atlanta, GA,30361,(800) 838-7405
Photographers, Event Photography Group ,3490 Martin Hurst Rd, Tallahassee, FL,32312,(800) 424-3686
Party Equipment Rentals, Event Rentals Unlimited ,201 Distribution Dr, Birmingham, AL,35209, 
Party Equipment Rentals, Event Source ,4047 Liberty Ave, Pittsburgh, PA,15224,(412) 809-8100
Party Supplies, Event Source ,6001 Towpath Dr, Valley View, OH,44125,(216) 901-0000
Wedding Planning, Events By Deb , , Indian Trail, NC,28079,(704) 779-4889
Gyms, Everybody Fitness ,3070 Woodman Dr, Kettering, OH,45420,(937) 293-6790
Trainers, EveryoneFitness ,18908 Rehoboth Mall Blvd, Rehoboth Beach, DE,19971,(302) 226-4653
Vehicle Shipping, Exclusive Auto Shipping ,732 Lewis Blvd S, Tallahassee, FL,32305,(866) 316-9066
DJs, Exclusively Entertainment , , Chevy Chase, MD,20815,(888) 881-3936
Day Spas, exhale® Midtown Atlanta ,1065 Peachtree St NE, Atlanta, GA,30309,(404) 720-5000
DJs, Expressway Music ,501 5th Ave, New York, NY,10017,(212) 953-9367
DJs, Expressway Music ,501 5th Ave, New York, NY,10017,(212) 953-9367
Party & Event Planning, Extravaganza Depot Reception Hall ,1610 N Tryon St, Charlotte, NC,28206,(704) 405-4455
Party & Event Planning, Extravaganza Depot Reception Hall ,1610 N Tryon St, Charlotte, NC,28206,(704) 405-4455
Party & Event Planning, Extravaganza Events & Props ,1610 N Tryon St, Charlotte, NC,28206,(704) 343-9200
Party & Event Planning, Extravaganza Events And Rentals ,400 W Main St, Elizabeth, PA,15037,(412) 651-6187
Party Equipment Rentals, EZ Rentalz ,804 Junction Rd, Durham, NC,27703,(919) 225-3407
Party Equipment Rentals, EZ Rentalz ,804 Junction Rd, Durham, NC,27703,(919) 225-3407
Performing Arts, Fairmount Center for the Arts ,8400 Fairmount Rd, Novelty, OH,44072,(440) 338-3171
Makeup Artists, Fairytale Hair and Makeup ,4283 Floridian Way, Orlando, FL,32830,(877) 324-7977
Caterers, Fallier Food , , New York, NY,10022,(201) 590-8971
Florists, Fallon’s Flowers ,700 St Mary's St, Raleigh, NC,27605,(919) 828-4134
Florists, Fallon’s Flowers North ,2731 Capital Blvd, Raleigh, NC,27604,(919) 836-8123
Videographers, Fashion Wedding Center ,51 E Broadway, New York, NY,10002,(212) 393-1166
Wedding Planning, Fearrington Village ,2000 Fearrington Village Ctr, Pittsboro, NC,27312,(919) 542-2121
Caterers, Feast On US ,645 Hudson St, New York, NY,10014,(212) 242-8231
Limos, Federal Limo ,3023 S University Dr, Fort Worth, TX,76109,(817) 704-0040
Session Photography, Fenix Fotography ,505 E 34th St, Charlotte, NC,28205,(704) 877-3323
Magicians, Ferrari Magic , , Clawson, MI,48017,(248) 249-0558
Party & Event Planning, Festive Affairs NY ,106-57 95th St, Queens, NY,11417,(347) 898-0128
Martial Arts, Fight Sport Training Center ,4600 Witmer Industrial Estate, Niagara Falls, NY,14305,(716) 628-2970
Caterers, Figs & Honey Catering ,1039 Marietta St, Atlanta, GA,30318,(404) 745-9561
Dance Schools, Firefly Studio ,1026-C Atlanta Ave, Decatur, GA,30030,(404) 593-3489
Dance Studios, First Dance Charlotte ,3626 Country Club Dr, Charlotte, NC,28205,(704) 916-9399
Gyms, Fitness Rx - Easton ,101 Marlboro Ave, Easton, MD,21601,(443) 385-0506
Caterers, Five Spice Catering ,385 Grand St, New York, NY,10002,(917) 602-7322
Airport Shuttles, Five Star Limo & Party Bus ,2889 W Tharpe St, Tallahassee, FL,32303,(850) 575-0117
Dance Schools, Flaco's Dance Factory ,411 York Rd, Jenkintown, PA,19046,(267) 972-3672
Travel Agents, Flamingo Tours & Travel ,3062 SW 16th St, Miami, FL,33145,(952) 486-7625
Session Photography, Flash Me NY Photography ,200 W 70th St, New York, NY,10023,(857) 287-7873
Dance Studios, Flaunt Fitness ,1939 S 17th St, Philadelphia, PA,19145,(267) 699-6636
Dance Studios, Flavor'd Flow Studio ,379 E Barthman Ave, Columbus, OH,43207,(614) 636-3569
Florists, Flor De Lux Same Day Flower Delivery Brickell Miami ,1250 S Miami Ave, Miami, FL,33130,(786) 600-0743
Florists, Flower Bar ,145 Sampson St, Atlanta, GA,30312,(404) 431-0811
Florists, Flower You ,122 E 25th St, New York, NY,10010,(212) 477-1037
Florists, Flowers & Services ,6600 Coral Way, Miami, FL,33155,(305) 460-6169
Florists, Flowers Atlanta ,539A Pharr Rd NE, Atlanta, GA,30305,(404) 233-9404
Florists, Flowers By Richard ,316 W 53rd St, New York, NY,10019,(212) 582-3505
Florists, Flowers of Charlotte ,800 Clanton Rd, Charlotte, NC,28217,(704) 523-2280
Florists, Flowers Plus ,301 S Tryon St, Charlotte, NC,28202,(704) 342-4529
Session Photography, Focus on Joy Photography ,1718 Floyd Ave, Richmond, VA,23220,(631) 806-3856
Session Photography, Focus on Joy Photography ,1718 Floyd Ave, Richmond, VA,23220,(631) 806-3856
Caterers, Food Trends ,56 E 41st St, New York, NY,10017,(212) 972-7320
DJs, Footloose Entertainment , , St Augustine, FL,32092,(904) 854-8014
Wedding Planning, For Love of Love ,321 Brook Rd, Richmond, VA,23220,(804) 519-0776
Breweries, Forest City Brewery ,2135 Columbus Rd, Cleveland, OH,44113,(216) 228-9116
Session Photography, Forever Photography , , Manhattan, NY,10003,(347) 291-4950
DJs, Forever Productions ,341 S College Rd, Wilmington, NC,28403,(910) 375-9771
Makeup Artists, Formal Faces , , Atlanta, GA,30303,(770) 682-7627
Event Photography, Formont Photography ,5532 Crabtree Park Ct, Raleigh, NC,27612,(919) 638-2675
Party & Event Planning, Forward Fig Events , , Raleigh, NC,27614,(919) 307-9092
Travel Agents, Four Seasons Travel Services ,605 Lincoln Rd, Miami Beach, FL,33139,(305) 604-9800
Performing Arts, Fox Theatre - Atlanta ,660 Peachtree St NE, Atlanta, GA,30308,(404) 881-2100
Performing Arts, Fred Astaire Dance Studio ,9547 Fields Ertel Rd, Loveland, OH,45140,(513) 583-9400
Performing Arts, Fred Astaire Dance Studio ,555 Lancaster Ave, Berwyn, PA,19312,(610) 251-0404
Performing Arts, Fred Astaire Dance Studio - Columbus ,1089 Bethel Rd, Columbus, OH,43220,(614) 459-8079
Dance Studios, Fred Astaire Dance Studio - New York Midtown ,200 E 37th St, New York, NY,10016,(212) 697-6535
Dance Studios, Fred Astaire Dance Studios ,5443 Sheridan Dr, Williamsville, NY,14221,(716) 633-1866
Dance Studios, Fred Astaire Dance Studios ,100 Arboretum Pl, Richmond, VA,23236,(804) 476-8297
Dance Studios, Fred Astaire Dance Studios - Atlanta Midtown ,887 W Marietta St NW, Atlanta, GA,30318,(404) 897-5556
Performing Arts, Fred Astaire Dance Studios - Canal Winchester ,8885 Basil Western Rd, Canal Winchester, OH,43110,(614) 833-3400
Dance Studios, Fred Astaire Dance Studios - Chagrin Falls ,8225 E Washington St, Chagrin Falls, OH,44023,(440) 543-1559
Dance Studios, Fred Astaire Dance Studios - Doctor Phillips ,8060 Via Dellagio Way, Orlando, FL,32819,(407) 757-7751
Dance Studios, Fred Astaire Dance Studios - New York Downtown ,291 Broadway, New York, NY,10007,(212) 267-9500
Dance Studios, Fred Astaire Dance Studios - Westerville ,1091 Eastwind Dr, Westerville, OH,43081,(614) 890-9790
Dance Studios, Fred Astaire Dance Studios - Winter Park ,1400 Howell Branch Rd, Winter Park, FL,32789,(407) 777-7780
Performing Arts, Fred Astaire Dance Studios Delaware ,1157 Columbus Pike, Delaware, OH,43015,(740) 368-9040
Dance Schools, Freestyle Dance Academy ,341 Lower State Rd, Chalfont, PA,18914,(215) 822-6313
Florists, French Market Flowers ,925 Garrett St, Atlanta, GA,30316,(470) 698-2145
Dance Schools, Fuego Y Hielo Dance Company ,524 Plasters Ave NE, Atlanta, GA,30324,(404) 444-0444
Yoga, Full Circle Yoga ,972B Orange Ave, Winter Park, FL,32789,(407) 644-3288
Dance Studios, Funk Lab Dance Studio ,4041 Marshall Rd, Kettering, OH,45429,(937) 477-3343
Travel Agents, G World Travel Agency ,69TH Pl, Maspeth, NY,11378,(718) 353-4400
Travel Agents, G World Travel Agency ,69TH Pl, Maspeth, NY,11378,(718) 353-4400
Gyms, Gahanna YMCA ,555 Ymca Pl, Gahanna, OH,43230,(614) 389-4529
Magicians, Gary Ferrar: Magician ,73-20 Austin St, Forest Hills, NY,11375,(646) 389-7325
Magicians, Gary Ferrar: Magician ,73-20 Austin St, Forest Hills, NY,11375,(646) 389-7325
Magicians, Gary Goodman's Magic Comedy Mentalism , , Boca Raton, FL,33431,(561) 302-9139
Performing Arts, Gaston School of the Arts Playhouse ,825 Union Rd, Gastonia, NC,28054,(704) 866-8882
DJs, Gauldin Gary Dj ,9507 Lyndonway Dr, Richmond, VA,23229,(804) 747-4777
Travel Agents, Geaux Vacay , , Atlanta, GA,30309,(678) 257-7758
Party Equipment Rentals, General Rental Center ,3512 Wortham St, Durham, NC,27705,(919) 383-6186
Party Equipment Rentals, General Rental Center ,3512 Wortham St, Durham, NC,27705,(919) 383-6186
Machine & Tool Rental, General Rental Center ,9189 Marshall Rd, Cranberry Township, PA,16066,(724) 776-6990
Performing Arts, Generations Performing Arts Center ,11 W College Ave, Westerville, OH,43081,(614) 794-3298
Taxis, Gentleman Taxi , , Richmond, VA,23225,(804) 839-8400
Party & Event Planning, Georgia Event Specialists ,1103 Clifton Rd, Atlanta, GA,30307,(470) 462-8434
Comedy Clubs, Georgia Magic Theater ,302 Clover Reach, Peachtree City, GA,30269,(925) 984-6504
Florists, Georgia's Finest Florists ,2750 Peachtree Industrial Blvd, Duluth, GA,30097,(678) 392-5992
Travel Services, Get Affordable Vacations , , Atlanta, GA,30331,(678) 907-6060
Dance Studios, Get Hep Swing ,15300 Detroit Ave, Cleveland, OH,44107,(216) 374-1927
Travel Agents, GETAWAY TRAVEL GROUP,301 S Greene St, Greensboro, NC,27401,(888) 702-3339
Event Photography, Gianna Keiko Photography ,45 Rockyford Rd SE, Atlanta, GA,30317,(404) 372-3924
Dance Schools, Gigi's Academy ,3800 W 12th Ave, Hialeah, FL,33012,(786) 486-6795
Limos, Gilbert's Transportation ,14028 Merganzer Ct, Charlotte, NC,28273,(704) 777-5333
Venues & Event Spaces, Gilley's Dallas ,1135 S Lamar St, Dallas, TX,75215,(214) 421-2021
Florists, Gingerbread House Florist ,7550 Creedmoor Rd 102, Raleigh, NC,27613,(919) 870-1894
Travel Agents, Ginny Maurer - Cruise Planners , , Greensboro, NC,27407,(336) 422-6353
Makeup Artists, Glam and Glo Beauty Bar ,109 Brady Ct, Cary, NC,27511,(919) 346-7133
Party Equipment Rentals, Glam House Bx ,892 E Tremont Ave, Bronx, NY,10460,(917) 861-0738
Women's Clothing, Glamour Goddess Boutique ,13450 Inwood Rd, Dallas, TX,75244,(469) 399-7903
Makeup Artists, Glamour Makeup By Ruth Lam ,8649 Ellard Dr, Alpharetta, GA,30022,(404) 964-3640
Art Classes, Glazed Expectations ,205 W Main St, Carrboro, NC,27510,(919) 933-9700
Hotels, Glidden House ,1901 Ford Dr, Cleveland, OH,44106,(216) 231-8900
Party & Event Planning, Glitz and Gloss Kids Spa Parties & Events ,6405 Westgate Rd, Raleigh, NC,27617,(919) 224-0978
Party & Event Planning, Glitz and Gloss Kids Spa Parties & Events ,6405 Westgate Rd, Raleigh, NC,27617,(919) 224-0978
Hair Salons, Glynn Jones Salon ,1635 R St NW, Washington, DC,20009,(202) 234-4445
Dance Studios, Gold Ballroom Dance Studio ,33322 E Chesapeake St, Lewes, DE,19958,(302) 357-1200
Gyms, Gold's Gym ,8 S Harvie St, Richmond, VA,23220,(804) 249-4653
DJs, Golden Entertainment, LLC - DJ, Karaoke & Singo Bingo , , Chester, VA
Hair Extensions, Goldwaves Salon ,5137 El Campo Ave, Fort Worth, TX,76107,(817) 731-8888
Travel Agents, Gone Traveling Tours ,3939 Granger Dr, Atlanta, GA,30341,(404) 682-4471
Food Trucks, Good Food Truck , , Atlanta, GA,30324,(678) 481-8182
Venues & Event Spaces, Good Life at Enderly Park ,2122 Freedom Dr, Charlotte, NC,28208,(980) 335-2433
Party Supplies, GoParty Decoration ,5817 Prosperity Church Rd, Charlotte, NC,28269,(704) 946-2729
Party Supplies, GoParty Decoration ,5817 Prosperity Church Rd, Charlotte, NC,28269,(704) 946-2729
Venues & Event Spaces, Gordon Green ,5400 Detroit Ave, Cleveland, OH,44102, 
Hair Salons, Grace Salon ,101 W Broad St, Richmond, VA,23220,(804) 925-5018
Performing Arts, Grand Central Academy of Performing Arts ,19615 Liverpool Pkway, Cornelius, NC,28031,(704) 896-3033
Party Equipment Rentals, Grand Rental Station ,115 Woodwinds Industrial Ct, Cary, NC,27511,(919) 380-7368
Machine & Tool Rental, Grand Rental Station - Raleigh ,2635 S Saunders St, Raleigh, NC,27603,(919) 828-1101
Machine & Tool Rental, Grand Rental Station - Raleigh ,2635 S Saunders St, Raleigh, NC,27603,(919) 828-1101
Party & Event Planning, Grandma's Princess , , Apex, NC,27502,(919) 387-3331
Venues & Event Spaces, Greater Richmond Convention Center ,403 N 3rd St, Richmond, VA,23219,(804) 783-7300
Performing Arts, Greggs Magic , , Mckinney, TX,75071,(469) 422-7268
Transportation, Greyhound Bus Lines ,112 W. Tennessee Street, Tallahassee, FL,32302,(850) 222-4249
Airport Shuttles, Groome Transportation ,2289 Dabney Rd, Richmond, VA,23230,(804) 222-7222
Hair Stylists, Gwynne Mims Salon ,1620 Margaret St, Jacksonville, FL,32204,(904) 374-6181
Fitness & Instruction, Habeeba's ,1327 King Ave, Columbus, OH,43212,(614) 486-3991
Photographers, Haddock Photography , , Jacksonville, FL,32246,(904) 257-3686
Hobby Shops, Haines House of Cards ,2514 Leslie Ave, Cincinnati, OH,45212,(513) 531-6548
Hair Stylists, Hair by Breann Garcia ,2613 Weisenberger St, Fort Worth, TX,76107,(469) 877-0021
Hair Stylists, Hair By Heather Johnson ,811 Hodges St, Raleigh, NC,27608,(347) 446-2833
Hair Salons, HAIR the Salon. ,1423 W Main St, Richmond, VA,23220,(804) 353-0903
Magicians, Hannibal ,6434 Williams Rd, Charlotte, NC,28215,(704) 301-2758
Performing Arts, Happy Dan the Magic Man , , Raleigh, NC,27603,(919) 272-6465
Travel Agents, Happy Planet ,406 Brigton Beach Ave, Brooklyn, NY,11235,(718) 934-2300
Party Equipment Rentals, Happy Rentz ,1428 S Elm Eugene St, Greensboro, NC,27406,(336) 370-1234
Photo Booth Rentals, Hashtag Photobooth , , New York, NY,10019,(310) 343-3261
Dance Clubs, Havana Club ATL ,3112 Piedmont Rd, Atlanta, GA,30305,(404) 869-8484
Florists, Heather Floral ,152 W 57th St, New York, NY,10019,(212) 265-9449
Photographers, Heathers Photography ,1825 Madison Ave, Manhattan, NY,10035,(212) 252-4136
Party & Event Planning, Hello Sunshine Events , , Atlanta, GA,30309,(770) 846-8538
Taxis, Henrico Taxi ,11 E Clay St, Richmond, VA,23219,(804) 517-4000
Travel Services, Hiatus , , Brooklyn, NY,11213,(917) 826-3950
Lounges, Highgarden ,419 Glenwood Ave, Raleigh, NC,27603, 
Performing Arts, Hilarious Bits O' Business ,908 W Florida St, Greensboro, NC,27403,(336) 558-6467
Venues & Event Spaces, Hildebrandt Building ,3700 Clark Ave, Cleveland, OH,44109,(216) 999-7193
DJs, Hip & Hitched , , Atlanta, GA,30303,(404) 794-0952
DJs, Hip & Hitched , , Atlanta, GA,30303,(404) 794-0952
Musicians, Hip and Hitched N.C. ,1234 Get Hitched St, Georgia, NC,28803,(404) 794-0952
Performing Arts, Hippodrome At France-Merrick Performing Arts Center ,12 N Eutaw St, Baltimore, MD,21201,(410) 837-7400
Sports Clubs, Hockessin Athletic Club ,100 Fitness Way, Hockessin, DE,19707,(302) 239-6688
Photographers, Hodgkins Photography , , Raleigh, NC,27617,(508) 212-1191
Hotels, Holiday Inn Oceanfront at Surfside Beach ,1601 N Ocean Blvd, Surfside Beach, SC,29575,(843) 238-5601
Session Photography, Holland Reid Photography & Production ,2195 Defoor Hills Rd, Atlanta, GA,30318,(404) 840-1374
Party Equipment Rentals, Holland Rent-All ,5118 Western Blvd, Raleigh, NC,27606,(919) 851-4378
Pole Dancing Classes, Honey Groove Studio ,4028 Parkmead Dr, Grove City, OH,43123,(614) 991-4042
Venues & Event Spaces, Hook Hall ,3400 Georgia Ave NW, Washington, DC, DC,20010
Yoga, Hot Yoga Richmond ,3024 Stony Point Rd, Richmond, VA,23235,(804) 330-3353
Hotels, Hotel Duval, Autograph Collection ,415 North Monroe Street, Tallahassee, FL,32301
Music Venues, House of Blues - Music Venue ,2200 N Lamar St, Dallas, TX,75202,(214) 978-2583
Venues & Event Spaces, House of Blues - Music Venue ,4640 Hwy 17 S, North Myrtle Beach, SC,29582,(843) 272-3000
Florists, House of Flowers ,710 14th St NW, Washington, DC, DC,20005
Vitamins & Supplements, House of Flowers ,5829 Sunset Dr, South Miami, FL,33143,(786) 452-2954
Party Supplies, House of Hough ,1025 W 25th St, Houston, TX,77008,(281) 900-0900
Party Supplies, House of Hough ,1025 W 25th St, Houston, TX,77008,(281) 900-0900
Florists, House of Lilac ,4247 SW 71st Ave, Miami, FL,33155,(305) 392-1297
Party & Event Planning, Howard & Howard Event Management And Catering ,1811 Sardis Rd N, Charlotte, NC,28270,(980) 349-5750
Limos, Hubert Car Services & Limo ,2750 E W T Harris Blvd, Charlotte, NC,28213,(704) 618-7170
Gyms, Huntersville Family Fitness & Aquatics ,11725 Verhoeff Dr, Huntersville, NC,28078,(704) 766-2222
Event Photography, I Am Jax Photo ,8544 Andaloma St, Jacksonville, FL,32211,(904) 580-4175
Dance Studios, Iacono Ballroom ,2211 Kensington Ave, Amherst, NY,14226,(716) 839-2690
Musical Instruments & Teachers, Imagine If School of the Arts ,105 Commerce St, Lake Mary, FL,32746,(407) 833-2729
Travel Services, Imagine Travel ,313 S Greene St, Greensboro, NC,27401,(336) 617-0137
Event Photography, In His Image Photography ,1000 Holtridge Dr, Apex, NC,27523,(919) 404-9707
Event Photography, In His Image Photography ,1000 Holtridge Dr, Apex, NC,27523,(919) 404-9707
Caterers, Incredibly Edible Catering ,1321 Sligh Blvd, Orlando, FL,32806,(407) 835-7172
Gyms, Independent Health Family Branch YMCA ,150 Tech Dr, Amherst, NY,14221,(716) 276-8300
Photographers, Indigo Photography ,2525 North Tryon St, Charlotte, NC,28206,(704) 335-0948
Venues & Event Spaces, Infinity Ballroom ,4038 Old Pineville Rd, Charlotte, NC,28217,(980) 819-0828
Yoga, Inspiral Motion ,20620 John Carroll Blvd, Shaker Heights, OH,44118,(216) 320-9446
Martial Arts, International Capoeira Angola Foundation ,1707 N Charles St, Baltimore, MD,21201,(443) 692-7909
Dance Studios, International Dance Studios ,2355 Cumberland Pkwy SE, Atlanta, GA,30339,(404) 680-1079
Party Equipment Rentals, Interstate Rental Service ,384 Amory St, Boston, MA,2130,(617) 522-6200
Party Equipment Rentals, Interstate Rental Service ,384 Amory St, Boston, MA,2130,(617) 522-6200
Convenience Stores, Intown Market ,349 Decatur St, Atlanta, GA,30312,(404) 577-8465
Performing Arts, Invitation To Dance ,3880 Lattimer St, Hilliard, OH,43026,(614) 777-6234
Party & Event Planning, Iparty ,8726 NW 26th St, Miami, FL,33172,(786) 571-8726
DJs, Ish and Ash Productions , , Mount Airy, NC,27030,(336) 710-8380
DJs, Island Sound ,106 Redfern Village, Saint Simons, GA,31522,(404) 451-3474
Popcorn Shops, It's Poppin Gourmet Kettle Korn ,224 E 7th St, Charlotte, NC,28202,(704) 327-6044
Candy Stores, IT'SUGAR ,264 19th St NW, Atlanta, GA,30363,(404) 815-1151
Party Equipment Rentals, J & J Tent and Party Rental ,1040 Corporation Pkwy, Raleigh, NC,27610,(919) 977-3691
Party Equipment Rentals, J & J Tent and Party Rental ,1040 Corporation Pkwy, Raleigh, NC,27610,(919) 977-3691
Party Equipment Rentals, J & J Tent and Party Rental ,1040 Corporation Pkwy, Raleigh, NC,27610,(919) 977-3691
Session Photography, J. Stud Studio , , Hoboken, NJ,7030,(917) 881-0842
Magicians, Jacki Manna Entertainment , , Oviedo, FL,32765,(407) 925-3527
Performing Arts, Jaclyn Carol's Dance Academy ,2884 Niagara Falls Blvd, North Tonawanda, NY,14120,(716) 260-1787
Magicians, Jake The Magician , , McKinney, TX,75070,(512) 865-8313
Gyms, James J. Harris Family Branch YMCA ,5900 Quail Hollow Rd, Charlotte, NC,28210,(704) 716-6800
Limos, James Limousine Service ,2415 Anniston St, Richmond, VA,23223,(804) 273-1540
Airport Shuttles, James River Transportation , , Richmond, VA,23250,(804) 249-1052
Performing Arts, Japan Society ,333 E 47th St, New York, NY,10017,(212) 832-1155
Party Bus Rentals, Jax Party Bus & Limousine ,1873 Everlee Rd, Jacksonville, FL,32216,(904) 233-1376
Event Photography, Jay Seth Photography ,307 7th Ave, New York, NY,10001,(917) 482-6065
Dance Studios, Jazzercise Charlotte Fitness Center ,1600 E Woodlawn Rd, Charlotte, NC,28209,(704) 335-8452
Gyms, Jazzercise Gahanna Fitness Center ,1020 Taylor Station Rd, Gahanna, OH,43230,(614) 861-1155
Event Photography, JBHelms Photographic ,410 Blandwood Av, Greensboro, NC,27401,(336) 541-5038
Botanical Gardens, JC Raulston Arboretum ,4415 Beryl Rd, Raleigh, NC,27606,(919) 515-3132
Dance Studios, Jean Marie Dance Studio ,125 Pullman Crossing Rd, Grasonville, MD,21638,(410) 304-2024
Magicians, Jeffini ,9710 Settlers Ln, Gainesville, GA,30327,(770) 375-6486
Magicians, Jeffini ,9710 Settlers Ln, Gainesville, GA,30327,(770) 375-6486
Magicians, Jeffini ,9710 Settlers Ln, Gainesville, GA,30327,(770) 375-6486
Event Photography, Jenna Bascom Photography , , New York, NY,10036,(860) 729-0375
Event Photography, Jenna Summa Photography , , Belton, TX,76513,(512) 827-9848
Travel Services, Jetset World Travel ,3365 Piedmont Rd NE, Atlanta, GA,30305,(312) 574-1180
DJs, Jewell Entertainment Group , , Wilmington, NC,28401,(910) 620-1657
Session Photography, Jina Lee Photography ,1200 Foster St NW, Atlanta, GA,30318,(404) 590-5697
Event Photography, JMK Photos , , Charlottesville, VA,22902,(434) 825-2052
Videographers, John Jordan Films ,1522 W Northwest Blvd, Winston-Salem, NC,27104,(336) 283-3948
Florists, Johnnie's Florist ,2000 Georgia Ave NW, Washington, DC, DC,20001
Travel Services, Jordan Executive Travel ,4651 Salisbury Rd, Jacksonville, FL,32256,(904) 446-8687
Session Photography, Joseph Anzalone Headshot Photographer ,6015 Chester Cir, Jacksonville, FL,32217,(904) 425-5135
Magicians, Joseph Fields, Children's Magician ,51 Thompson St, Tuckahoe, NY,10707
Magicians, Joseph Fields, Children's Magician ,51 Thompson St, Tuckahoe, NY,10707
Travel Agents, Journeys Inc , , Glen Allen, VA,23058,(804) 288-0188
Party & Event Planning, Juliano Mobile DJ ,5706 W Jamson Rd, Richmond, VA,23234,(804) 938-7479
Hair Salons, just b hair SALON - Buckhead ,1831-C Peachtree Rd NW, Atlanta, GA,30309,(470) 355-7951
Opera & Ballet, Just Dance Too Performing Arts Dance Company ,485 S Kirkman Rd, Orlando, FL,32811,(407) 489-1809
Party Supplies, Just In Case Party Rental ,310 Main St, Everett, MA,2149,(617) 547-0982
Party Supplies, Just In Case Party Rental ,310 Main St, Everett, MA,2149,(617) 547-0982
DJs, Just Jamz Entertainment ,11111 San Jose Blvd, Jacksonville, FL,32223,(904) 245-9779
Travel Agents, K & M International Travel ,136-77 Roosevelt Ave, Flushing, NY,11354,(718) 939-3838
Event Photography, Kait Winston Photography , , Richmond, VA,23233,(804) 317-1024
Candy Stores, Kandy Apples by K ,6320 Capital Blvd, Raleigh, NC,27616,(919) 623-9552
Candy Stores, Kandy Apples by K ,6320 Capital Blvd, Raleigh, NC,27616,(919) 623-9552
Magicians, Kane Magic Entertainment , , Plano, TX,75074,(214) 300-5382
Event Photography, Kane Studios Photography & Gardens ,800 Live Oak Dr, Killeen, TX,76541,(254) 699-8826
Event Photography, Karen Armstrong Photography ,205 Elm Ave, Charlottesville, VA,22911,(540) 223-3322
Dance Studios, Karibe Dance Studio ,10370 W Flagler St, Miami, FL,33174,(305) 220-1505
Real Estate Agents, Karli Younger - Virginia Properties ,412 Libbie Ave, Richmond, VA,23226,(804) 287-4699
Clowns, Kathi's Klowns , , Durham, NC,27705,(919) 590-0559
Venues & Event Spaces, Katra ,217 Bowery St, New York, NY,10002,(212) 473-3113
Martial Arts, KC's Fitness ,273 Thorn Ave, Orchard Park, NY,14127,(716) 886-0252
Florists, Kelly Odom Flowers ,102 Glenwood Ave, Raleigh, NC,27603,(919) 829-3888
Party Equipment Rentals, Kels Rentals ,2214 3rd Ave N, Birmingham, AL,35203,(205) 914-2689
Party Equipment Rentals, Kels Rentals ,2214 3rd Ave N, Birmingham, AL,35203,(205) 914-2689
Web Design, Ken Magas Design ,962 W Hill St, Charlotte, NC,28208,(704) 372-2949
Event Photography, Khanh Nguyen Photography ,4700 Beechnut St, Houston, TX,77096,(832) 661-0216
Performing Arts, Kibler Dance Academy ,180 W Streetsboro St, Hudson, OH,44236,(330) 655-5321
Party Supplies, Kicks & Giggles Rentals , , Greensboro, NC,27406,(336) 790-1800
Martial Arts, Kids First Sports Center ,7900 E Kemper Rd, Cincinnati, OH,45249,(513) 489-7575
Swimming Lessons/Schools, KIDS FIRST Swim School - Cockeysville ,9970 York Rd, Cockeysville, MD,21030,(410) 666-2966
Clowns, Kidsorama ,11023 Ballantyne Commons Pkwy, Charlotte, NC,28277,(980) 533-0926
Ice Cream & Frozen Yogurt, Kilwin's ,1380 Atlantic Dr, Atlanta, GA,30363,(404) 817-7500
Event Photography, Kimberly Frost Photography ,0 E 4th St, Richmond, VA,23224,(804) 239-0203
Session Photography, Kimhearts Photography , , Jacksonville, FL,32256,(904) 718-7549
Performing Arts, King David Christian Conservatory ,2200 Coronation Blvd, Charlotte, NC,28227,(704) 845-9116
Bowling, King Pin Lanes Midlothian ,200 N Otterdale Rd, Midlothian, VA,23113,(804) 378-7838
Magicians, Kingry Magic & Illusion ,4517 Gosnold Ave, Norfolk, VA,23508,(757) 622-7133
Magicians, Kingry Magic & Illusion ,4517 Gosnold Ave, Norfolk, VA,23508,(757) 622-7133
Florists, Kings Creek Flowers ,13210 SW 132nd Ave, Miami, FL,33186,(305) 595-4048
Caterers, Kitchen Provance ,55 West 38 St, New York, NY,10018,(212) 869-2561
Photography Stores & Services, KM Photography , , Charlotte, NC,28105,(980) 819-0499
Dance Studios, Koresh Dance Company ,2002 Rittenhouse Sq, Philadelphia, PA,19103,(215) 751-0959
Makeup Artists, Krista Massey , , Raleigh, NC,27614,(919) 886-2080
Dance Schools, Kurt Senser ,2800 Glaston Way, Milton, GA,30004,(925) 895-1488
Venues & Event Spaces, L'Amour Restaurant ,102-11 Queens Blvd, Forest Hills, NY,11375,(718) 459-8800
Social Clubs, La Danse Cleveland ,23366 Commerce Park, Beachwood, OH,44122,(216) 464-5325
Gyms, LA Fitness ,1893 Elmwood Ave, Buffalo, NY,14207,(716) 541-1092
Dance Studios, La Imperial Dance ,242 Wheelhouse Ln, Lake Mary, FL,32746,(407) 549-2612
Party & Event Planning, La-Tea-Da's Catering ,3401 Commonwealth Ave, Charlotte, NC,28205,(704) 338-6864
Party & Event Planning, La-Tea-Da's Catering ,3401 Commonwealth Ave, Charlotte, NC,28205,(704) 338-6864
Limos, LAAC Car Service ,1100 Peachtree St NE, Atlanta, GA,30309,(844) 207-2964
Cosmetology Schools, LaBarberia Institute of Hair ,1633 Golden Gate Plz, Mayfield Heights, OH,44124,(440) 565-7525
Art Galleries, LaCa Projects ,1429 Bryant St, Charlotte, NC,28208,(704) 837-1688
Caterers, Ladyfingers Caterers ,627 E Whitaker Mill Rd, Raleigh, NC,27608,(919) 828-2270
Gyms, Lake Norman Family Branch YMCA ,21300 Davidson St, Cornelius, NC,28031,(704) 716-4400
Hair Salons, Lakshmi Hair Parlour by Keely Brown ,111 Seaboard Ave, Raleigh, NC,27604,(919) 619-4577
Cheese Shops, Lamazou ,370 3rd Ave, New York, NY,10016,(212) 532-2009
Florists, Lane Florist ,6714 Snider Plz, Dallas, TX,75205,(214) 363-1637
Musical Instruments & Teachers, Lanti Performing Arts ,323 Unionville Indian Trl Rd, Indian Trail, NC,28079,(704) 269-8420
Dance Studios, Lapierre Ballroom Dance Studio ,111 High St E, Glassboro, NJ,8028,(856) 307-9464
Limos, Larry's Private Car & Limo Service ,8930 State Rd 84, Plantation, FL,33324,(954) 473-6631
Florists, Las Flores De La Carreta ,8410 W Flagler St 111, Miami, FL,33144, 
Party Equipment Rentals, Lasting Impressions Event Rental ,26000 Richmond Rd, Bedford Heights, OH,44146,(216) 591-1177
Language Schools, Latin American Institute ,115 Elmwood Ave, Buffalo, NY,14201,(716) 553-7472
Dance Studios, Latin Dance Movement ,8210 Pines Blvd, Pembroke Pines, FL,33024,(954) 799-9279
DJs, Latin DJ NY , , Queens, NY,11367,(516) 474-0944
DJs, Latin DJ NY , , Queens, NY,11367,(516) 474-0944
Party & Event Planning, Laugh n Leap Amusements ,3125 Bluff Rd, Columbia, SC,29209,(803) 647-9601
Venues & Event Spaces, LaunchHouse ,675 Alpha Dr, Highland Heights, OH,44143,(216) 255-3070
Supernatural Readings, Laura E West ,9426 Chimney Corner Ln, Dallas, TX,75043,(214) 334-0769
Hair Salons, Laura Hyatt Hair ,1526 University Blvd W, Jacksonville, FL,32217,(904) 400-2205
Event Photography, Laura Merrill Images ,420 E 55th St, New York, NY,10022,(646) 504-1105
Event Photography, Laura Merrill Images ,420 E 55th St, New York, NY,10022,(646) 504-1105
Event Photography, Laura Merrill Images ,420 E 55th St, New York, NY,10022,(646) 504-1105
Hair Stylists, Laura Reynolds Artistry Hair And Makeup Team ,3331 Curry Ford Rd, Orlando, FL,32806,(407) 962-5114
Event Photography, Laura Sponaugle Photography ,6310 Main St, Houston, TX,77005, 
Event Photography, Lauren Colchamiro Photography , , Brooklyn, NY,11215,(347) 788-0629
Party Equipment Rentals, Lax States - Floral and Event Decor ,1702 Industrial Hwy, Cinnaminson, NJ,8077,(856) 543-4122
Event Photography, Lazzat Photography ,200 E Robinson St, Orlando, FL,32801,(407) 308-5815
Martial Arts, Leadership Martial Arts Academy ,9928 S Tryon St, Charlotte, NC,28273, 
Hair Stylists, LeCreatif Hair Salon and Studio ,5018 Ledgestone Dr, Fort Worth, TX,76132,(817) 614-5164
Florists, Lee's Flower And Card Shop ,1026 U St NW, Washington, DC, DC,20001
Venues & Event Spaces, Legendary Events ,1380 West Marietta St NW, Atlanta, GA,30318,(404) 869-8858
Dance Schools, Leggz Dance Academy ,1224 S John Young Pkwy, Kissimmee, FL,34741,(407) 870-5221
Travel Agents, Leisure Travel Enterprises ,2752 Pleasant Rd, Fort Mill, SC,29708,(803) 548-7009
Hair Salons, Lemongrass Salon University ,1612 S University Dr, Fort Worth, TX,76107,(817) 332-1155
Session Photography, Leslie Andrews Photography ,2195 Defoor Hills Rd NW, Atlanta, GA,30318,(678) 562-7176
Wedding Planning, Leslie Rowe Events ,2985 S Bayshore Dr, Miami, FL,33133,(786) 402-2331
Dance Studios, Let's Dance Miami ,15400 Biscayne Blvd, Aventura, FL,33160,(786) 789-4001
DJs, Let's Party! ,7200 NW 2nd Ave, Boca Raton, FL,33487,(561) 251-0810
Balloon Services, Let’s Bee Unique ,2607 Woodruff Rd, Simpsonville, SC,29681,(864) 775-0797
Notaries, Leyte Global Services ,2530 Meridian Pkwy, Durham, NC,27713,(321) 243-2621
Dance Studios, Life Dance Mastery ,100 S Palm Ave, Howey-in-the-Hills, FL,34737,(352) 324-6473
Gyms, Life Time ,3850 Richmond Rd, Beachwood, OH,44122,(216) 292-6844
Cycling Classes, Life Time ,11220 Golf Links Dr, Charlotte, NC,28277,(704) 901-7100
Gyms, Life Time ,8310 Wilkens Blvd, Mason, OH,45040,(513) 234-0660
Gyms, Life Time ,3825 Hard Rd, Dublin, OH,43016,(614) 764-1144
Gyms, Life Time ,3900 Easton Station, Columbus, OH,43219,(614) 428-6000
Makeup Artists, Lily Wong Makeup Artist ,275 Cherry St, New York, NY,10002,(917) 412-6873
Dance Clubs, Lincoln Street Salsa ,361 E Broad St, Columbus, OH,43215,(614) 774-8146
Session Photography, Lindley Battle Photography , , Greensboro, NC,27403,(336) 403-3158
Session Photography, Lindsay Parks Photography , , Minneola, FL,34715,(305) 725-0932
Event Photography, Lindsey Mueller Photography , , Austin, TX,78747,(512) 906-6769
Dance Schools, Liquid Silver Salsa ,6208 SW 8th St, Miami, FL,33144,(786) 201-6510
Community Service/Non-Profit, Little River Chamber of Commerce & Visitors Center ,440 Hwy 90 E, Little River, SC,29566,(843) 249-6604
Makeup Artists, Little Shop of Hairdos NC ,7361 Six Forks Rd, Raleigh, NC,27615,(919) 263-0567
Audio/Visual Equipment Rental, Live Events Media Group ,9311 Monroe Rd, Charlotte, NC,28270,(704) 844-0121
Performing Arts, Living Arts Dance Fitness Studios ,624 N Front St, Philadelphia, PA,19123,(888) 257-9991
DJs, Liz Daley Events ,9077 Marmont Ln, Williamsburg, VA,23188,(757) 566-4530
Party & Event Planning, Local Party Room ,80 W Kingsbridge Rd, Bronx, NY,10457,(646) 260-2602
Chocolatiers & Shops, Lolli and Pops ,4400 Ashford Dunwoody Rd, Atlanta, GA,30346,(770) 551-7120
Travel Services, Lorraine Travel ,377 Alhambra Cir, Coral Gables, FL,33134,(305) 446-4433
Dance Studios, Lorraine's Dance Studio ,1720 N Goldenrod Rd, Orlando, FL,32807,(321) 438-0410
Makeup Artists, Lou Stevens ,101 W Broad St, Richmond, VA,23220,(804) 305-3965
Makeup Artists, Love Glows Hair and Makeup ,2401 Mayport, Atlantic Beach, FL,32233,(808) 861-7361
Airport Shuttles, Love Limousine ,5327 Forest Hill Ave, Richmond, VA,23225,(804) 355-5466
Videographers, Loved Memories Photography ,5501 Kingman Dr, Waco, TX,76657,(254) 709-5245
Wedding Planning, LoveDecor , , Brighton, MA,2135,(857) 869-2035
Wedding Planning, LoveDecor , , Brighton, MA,2135,(857) 869-2035
Makeup Artists, Luxe Lashes Beauty Studio ,9200 Stony Point Pkwy, Richmond, VA,23235,(804) 868-5052
Nail Salons, Luxe Nail Spa ,11670 W Broad St, Richmond, VA,23233,(804) 360-2200
Taxis, Luxury Ny Limo ,12 W 57th St, New York, NY,10019,(646) 281-2312
Airport Shuttles, Luxury Transportation , , Charlotte, NC,28206,(704) 458-9126
Venues & Event Spaces, Lyon Park Community Center ,414 N Fillmore St, Arlington, VA,22201,(703) 527-9520
Gyms, M.E. Lyons YMCA ,8108 Clough Pike, Cincinnati, OH,45244,(513) 474-1400
Cosmetics & Beauty Supply, MAC Cosmetics ,4790 River City Dr, Jacksonville, FL,32246,(904) 564-4224
Session Photography, Macbeth Studio ,2300 Edgewater Dr, Orlando, FL,32804,(407) 961-2858
Performing Arts, Mad Cow Theatre ,54 W Church St, Orlando, FL,32801,(407) 297-8788
American (New), Madison Social ,705 S Woodward Ave, Tallahassee, FL,32304,(850) 894-6276
Magicians, Magic Barry Family Entertainment , , Charlotte, NC,28105,(704) 236-6926
Magicians, Magic by David ,7716 Tuscan Ridge Dr, Wendell, NC,27591,(919) 266-1682
Magicians, Magic by David ,7716 Tuscan Ridge Dr, Wendell, NC,27591,(919) 266-1682
Magicians, Magic Fun House Productions ,4100 Rowlett Rd, Rowlett, TX,75088,(469) 814-0375
Magicians, Magic Jack Maxwell ,207 SE 1st Ter, Dania Beach, FL,33004,(954) 549-7728
Magicians, Magic Scott Marshall , , Alexandria, VA,22302,(323) 317-7013
Magicians, Magic Show Orlando ,729 Lee Rd, Orlando, FL,32810,(877) 567-8921
Party & Event Planning, Magic Special Events ,3024 Bells Rd, Richmond, VA,23234,(804) 230-1500
Performing Arts, Magical John , Shepard St, Rochester, NY,14620,(585) 484-0348
Clowns, Magical Matty . Fun , , Rockwall, TX,75032,(972) 746-8455
Magicians, Magician Antwan Towner ,2000 E 12th Ave, Tampa, FL,33675,(813) 444-7694
Magicians, Magician Chris Michael , , Richmond, VA,23220,(804) 442-6132
Magicians, Magician Magic Mike Jacobson ,200 E 10th St, New York, NY,10003,(310) 500-9945
Magicians, Magician Magic Mike Jacobson ,200 E 10th St, New York, NY,10003,(310) 500-9945
DJs, Magnetix DJ Services , , Jacksonville, FL,32257,(904) 607-7111
Makeup Artists, Maira Ortiz Makeup And Hair Artist ,13 W 17th St, New York, NY,10011,(917) 922-9505
Dance Schools, Majestic Belly Dancing by Fariba ,5807 Karric Square Dr, Dublin, OH,43016,(614) 726-9060
Limos, Majestic Limousine Service ,1200 Anastasia Avenue, Coral Gables, FL,33134,(305) 774-0117
Dance Studios, Major Moment Studio ,1624 South St, Philadelphia, PA,19146,(267) 687-6886
Caterers, Mama Ricotta's Catering ,601 S Kings Dr, Charlotte, NC,28204,(704) 343-0155
Magicians, MamaMia Magic ,16564 SW 50 Tr, Miami, FL,33185,(786) 769-3385
Party Equipment Rentals, Mancarella Party Supplies Gifts & Rental ,3801 Saint Stephens Rd, Mobile, AL,36612,(251) 452-2233
Hair Salons, Mango Salon - Richmond ,5702 Grove Ave, Richmond, VA,23226,(804) 285-2800
Travel Services, Mann Travels - Park Road ,4400 Park Rd, Charlotte, NC,28209,(704) 556-8322
DJs, Manny Green Entertainment ,13751 Lintel Ln, Midlothian, VA,23113,(804) 379-9404
Caterers, Marcey Brownstein Catering & Events ,555 W 23rd St, New York, NY,10011,(212) 807-0568
Performing Arts, Marino Dance Club ,332 Wilshire Blvd, Casselberry, FL,32707,(407) 339-3000
Party Supplies, Mario's Party Company ,726 Dudley St, Boston, MA,2125,(617) 287-1008
Party Supplies, Mario's Party Company ,726 Dudley St, Boston, MA,2125,(617) 287-1008
Venues & Event Spaces, Market Hall ,215 Wolfe St, Raleigh, NC,27601,(984) 232-8661
Party Equipment Rentals, Marsh's Rentals , , Durham, NC,27517,(919) 475-2435
Gyms, Maryland Athletic Club ,655 President St, Baltimore, MD,21202,(410) 625-5000
Wedding Planning, Masi Events ,7253 SW 48th St, Miami, FL,33155,(305) 910-2888
Florists, Matles Floral Design ,329 W 57th St, New York, NY,10019,(212) 246-1181
Magicians, Matt Brockman , , Durham, NC,27701,(919) 672-1607
Session Photography, Matt Burke Photo ,310 Blount St, Tallahassee, FL,32301,(850) 524-1243
Dance Studios, Matthews Ballroom+Events ,189 N Trade St, Matthews, NC,28105,(704) 969-9839
Travel Services, Maupin Travel ,510 Daniels St, Raleigh, NC,27605,(919) 832-5550
Performing Arts, Max Major - Mind Reading and Magic Show ,718 7th St NW, Washington, DC, DC,20004
Gyms, MaxFit & Sports ,240 Delsea Dr S, Glassboro, NJ,8028,(856) 226-3104
Gyms, Mayerson JCC ,8485 Ridge Rd, Cincinnati, OH,45236,(513) 761-7500
Venues & Event Spaces, Medina Hall ,76-15 101st Ave, Ozone Park, NY,11416,(718) 701-1673
Session Photography, Megan Soto Photography , , St. Augustine, FL,32092,(904) 687-6584
Party & Event Planning, Melissa's Creation ,60-43 148th St, Flushing , NY,11355,(917) 887-0055
Musical Instruments & Teachers, Melody Magic Music Studio ,3041 Lauderdale Dr, Henrico, VA,23233,(804) 412-8098
Travel Services, Mena Travel ,3907 SW 67th Ave, Miami, FL,33155,(305) 649-7066
Makeup Artists, Merle Norman Cosmetics ,208 S Main St, Fuquay Varina, NC,27526,(919) 552-3751
Party & Event Planning, Mermaid Ariana , , Virginia Beach, VA,23451,(757) 831-1874
Gyms, Merritt Clubs ,210 E Centre St, Baltimore, MD,21202,(410) 332-0906
Gyms, Merritt Clubs ,5301 Campbell Blvd., White Marsh, MD,21236,(410) 773-9007
Gyms, Merritt Clubs ,8757 Mylander Ln, Towson, MD,21286,(410) 821-0160
Performing Arts, Mesmerizing Arts , , Creedmoor, NC,27522,(919) 810-8151
Venues & Event Spaces, Metropolitan Ballroom ,2935 Providence Rd, Charlotte, NC,28211,(704) 364-1871
Caterers, Miami Grill Catering ,2350 W 84th St, miami, FL,33016,(786) 282-9956
Party & Event Planning, Miami Party Entertainment , , Miami, FL,33145,(305) 399-6231
Magicians, Michael Douglas Magic , , Raleigh, NC,27610,(919) 391-8113
Magicians, Michael Kent , , Columbus, OH,43004,(888) 811-9536
Magicians, Michael Kent , , Columbus, OH,43004,(888) 811-9536
Magicians, Michael Kent , , Columbus, OH,43004,(888) 811-9536
Event Photography, Michael Ramos Photographer ,5016 Allen St, Houston, TX,77007,(281) 704-0034
Event Photography, Michelle Scott Photography ,434 Marietta St NW, Atlanta, GA,30313,(312) 869-4043
Dance Studios, Midtown Ballroom ,1133 Metropolitan Ave, Charlotte, NC,28204,(704) 579-6000
Dance Studios, Midwest Ballroom Dancesport Club , , Covington, KY,41011,(513) 535-3771
Educational Services, Midwest School Shows ,13279 Forest Ridge Blvd, Sterling Heights, MI,48313,(586) 913-3036
Florists, Midwood Flower Shop ,2415 Central Ave, Charlotte, NC,28205,(704) 376-7500
Bakeries, Miel Bon Bons ,1011 West Main St, Durham, NC,27701,(919) 360-3332
Bakeries, Miel Bon Bons ,1011 West Main St, Durham, NC,27701,(919) 360-3332
Party Equipment Rentals, Mihm Rental & Sales ,2326 Babcock Blvd, Pittsburgh, PA,15237,(412) 931-7660
Limos, Mike's Limousine Service Tallahassee ,3109 W Tennessee St, Tallahassee, FL,32304,(850) 933-6683
Party Bus Rentals, Mikes Limousine Bus Charters ,3109 W Tennessee St, Tallahassee, FL,32304,(850) 251-6453
Event Photography, MILK + HONEY Photography , , Charlotte, NC,28105,(704) 593-8642
Florists, Mille Fleurs Flowers ,4901 Keller Springs Rd, Addison, TX,75001,(972) 960-1021
Party & Event Planning, Miller's Grand Events ,25341 Highway 181, Daphne, AL,36526,(251) 625-4910
Party & Event Planning, Minitown ,4005 NW 114th Ave, Doral, FL,33178,(305) 592-1055
Dance Schools, Miss Donna's School Of Dancing ,1707D Sardis Rd N, Charlotte, NC,28270,(704) 847-3322
Makeup Artists, Miss Harlequin ,303 W 21st St, New York, NY,10011,(415) 533-4388
Venues & Event Spaces, Mission San Luis ,2100 W Tennessee St, Tallahassee, FL,32304,(850) 245-6406
Venues & Event Spaces, MixhouseATL ,3800 Wendell Dr SW, Atlanta, GA,30336,(404) 836-3937
Performing Arts, Mjm Studios ,5796 Constitution Dr, Florence, KY,41042,(859) 282-6116
Florists, Mockingbird Florist ,5606 E Mockingbird Ln, Dallas, TX,75206,(214) 821-1433
Performing Arts, Modell Performing Arts Center at The Lyric ,140 W Mt Royal Ave, Baltimore, MD,21201,(410) 900-1150
Venues & Event Spaces, MODEx Studio ,3005 Peachtree Rd NE, Atlanta, GA,30305,(404) 736-2200
DJs, Mohr Fun Events , , Boone, NC,28607,(252) 202-0839
Makeup Artists, Monai Beauty ,2100 S Ws Young, Killeen, TX,76543,(254) 680-3399
Party & Event Planning, Monkey Business Events & Entertainment ,1015 Weber Ct, Charlotte, NC,28211,(704) 332-7464
Performing Arts, Morton Street Dance Center ,3600 Clipper Mill Rd, Baltimore, MD,21211,(410) 235-9003
Advertising, Motivation Marketing Firm ,1801 N Tryon St, Charlotte, NC,28206,(704) 326-2187
Dance Studios, Movemakers Philly ,2100 Chestnut St, Philadelphia, PA,19103,(267) 600-1030
Dance Studios, Movement Arts Dance and Aerial Studio ,2594 N Orange Blossom Trail, Orlando, FL,32803,(407) 491-4520
Dance Studios, MoveStudio Charlotte ,4418-E Monroe Rd, Charlotte, NC,28205,(980) 329-6683
Dance Studios, MoveStudio Charlotte ,4418-E Monroe Rd, Charlotte, NC,28205,(980) 329-6683
Dance Studios, Movez Dance ,7480 Narcoossee Rd, Orlando, FL,32822,(407) 745-0989
DJs, Moving Music ,2541 Niagara Falls Blvd, Amherst, NY,14228,(716) 649-1490
Photo Booth Rentals, MoxBox ,2725 Avinity Ln, Charlottesville, VA,22902,(540) 583-6626
Party Supplies, Mr Balloon Events  ,1219 S Shepherd Dr, Houston, TX,77019,(713) 367-8772
Party Supplies, Mr Balloon Events  ,1219 S Shepherd Dr, Houston, TX,77019,(713) 367-8772
Caterers, Mr. Pasta Catering ,919 SW 122nd Ave, Miami, FL,33184,(305) 661-5200
Limos, MTI Limo and Shuttle Services ,2581 Sullivan Rd, College Park, GA,30337,(404) 669-0900
Party Equipment Rentals, Munchees Popcorn ,632-F Matthews Mint Hill Rd, Matthews, NC,28105,(704) 535-3900
Travel Services, Muriel Gellatly Travel ,115 Shockoe Slip, Richmond, VA,23219,(804) 644-6187
Performing Arts, Music By Gigi ,675 West End Ave, Manhattan, NY,10025,(917) 848-1213
Dance Schools, Musicality Central ,2890 Delaware Ave, Buffalo, NY,14217,(716) 903-3330
Party & Event Planning, My Chic Party Boutique ,163 S Trade St, Matthews, NC,28105,(980) 355-9059
Real Estate Photography, My Pro Photographer ,6005 Marshville Ct, Raleigh, NC,27616,(919) 599-7683
Performing Arts, My Salsa Dance School ,4470 Satellite Blvd, Duluth, GA,30096,(678) 667-2572
Venues & Event Spaces, Myrtle Beach Convention Center ,2101 N Oak St, Myrtle Beach, SC,29577,(843) 918-1225
Venues & Event Spaces, Mystic Farm and Distillery ,1212 North Mineral Springs Rd, Durham, NC,27703,(336) 409-0131
Performing Arts, N'styl Performance Wear ,4241 Lb McLeod Rd, Orlando, FL,32811,(407) 418-1275
Dance Schools, Nannette's Ballroom ,2220 Hemple Ave, Gotha, FL,34734,(386) 532-2624
Dance Studios, Nannettes Inc. Ballroom Dance ,2220 Hempel Ave, Gotha, FL,34734,(386) 532-2624
DJs, Nard's Professional Dj Service ,2306 Adelphi Rd, Richmond, VA,23229,(804) 747-9159
Event Photography, Nastja Photography ,75 Ponce De Leon Ave NE, Atlanta, GA,30308,(770) 331-4282
Performing Arts, Nazareth College Arts Center ,4245 East Ave, Rochester, NY,14618,(585) 389-2170
Florists, Nectar ,910 Pecan Ave, Charlotte, NC,28205,(704) 905-9808
Performing Arts, New Albany Ballet Company ,5161 Forest Dr, New Albany, OH,43054,(614) 939-9058
Party Equipment Rentals, New England Audio Rental ,434 Massachusetts Ave, Boston, MA,2118,(617) 347-1818
Party Equipment Rentals, New England Audio Rental ,434 Massachusetts Ave, Boston, MA,2118,(617) 347-1818
Travel Services, New Era Travel ,13301 SW 132nd Ave, Miami, FL,33186,(305) 386-7016
Party & Event Planning, New World Events ,1340 Lincoln Rd, Miami Beach, FL,33139,(919) 521-3002
Dance Schools, Niagara Falls Dance , , Niagara Falls, ON, ,+1 289-303-7904
Gyms, No Limits Dance & Fitness ,3306 W Hwy 74, Monroe, NC,28110,(704) 465-4538
Trainers, Nomad Aquatics & Fitness ,11202 Harris Rd, Huntersville, NC,28078,(704) 949-1555
Videographers, Nona Photography ,1516 E. Hillcrest St, Orlando, FL,32803,(407) 489-8880
Caterers, Nonna Knows Catering , , Dallas, TX,75235,(817) 291-1960
Wine Tours, Norm’s Executive Transportation , , Charlottesville, VA,22902,(434) 989-8905
Venues & Event Spaces, North Hall ,225 7th St SE, Washington, DC, DC,20003
Limos, North Hills Transportation ,4208 Six Forks Rd, Raleigh, NC,27609,(919) 810-4166
Florists, North Raleigh Florist ,7457 Six Forks Rd, Raleigh, NC,27615,(919) 847-3381
Bakeries, Nothing Bundt Cakes ,601 S Kings Dr, Charlotte, NC,28204,(704) 909-4577
Bakeries, Nothing Bundt Cakes ,410 Peachtree Pkwy, Cumming, GA,30041,(470) 839-2985
Party Equipment Rentals, Now It's A Party! ,401 South Tryon St, Charlotte, NC,28202,(704) 641-5142
Bars, Nuyorican Poets Cafe ,236 E 3rd St, New York, NY,10009,(212) 505-8183
Party & Event Planning, NVS Events , , Raleigh, NC,27620,(919) 307-6885
Party & Event Planning, NVS Events , , Raleigh, NC,27620,(919) 307-6885
Airport Shuttles, NYC Executive Limo , , New York, NY,10019,(212) 470-3671
Airport Shuttles, NYC Executive Limo , , New York, NY,10019,(212) 470-3671
Tours, NYC Perfect Transportation ,1535 Broadway, New York, NY,10036,(888) 209-3095
Performing Arts, Ohana of Polynesia - Hawaiian Luau Entertainment , , Washington, DC, DC,22153
Performing Arts, Ohana of Polynesia - Hawaiian Luau Entertainment , , Washington, DC, DC,22153
Session Photography, Olivia Womack Photography , , Merritt Island , FL,32953,(772) 494-1234
Transportation, On the Go Student Shuttle ,3944 Big Thicket Dr, Fort Worth, TX,76244,(817) 301-3264
Airport Shuttles, On Time Limo, Taxi Cab & Car Service ,5981 Arapaho Rd, Dallas, TX,75248
Venues & Event Spaces, One Banquet Hall ,181-08 Union Tpke, Queens, NY,11366,(718) 594-4988
DJs, One Sound and Entertainment , , Atlanta, GA,30301,(678) 485-7345
Airport Shuttles, Opulence Transportation ,999 Waterside Dr, Norfolk, VA,23510,(757) 805-7187
Venues & Event Spaces, Orchid Room At Miller Preserve ,2739 Avon Belden Rd, Avon, OH,44011,(440) 458-5121
Gyms, Orlando Aerial Arts ,6700 KIngspointe Pkwy, Orlando, FL,32819,(863) 414-8061
Musicians, Orlando Dueling Pianos ,7512 Dr Phillips Blvd, Orlando, FL,32819,(407) 990-1920
Event Photography, Orlando Event Photography ,4205 Vineland Rd, Orlando, FL,32811,(888) 896-7250
Yoga, Orlando Power Yoga ,2415 E South St, Orlando, FL,32803,(407) 719-0101
Performing Arts, Orlando Shakes ,812 E Rollins St, Orlando, FL,32803,(407) 447-1700
Dance Clubs, Orlando Swing Dance ,6949 Venture Cir, Orlando, FL,32807,(407) 694-0119
Airport Shuttles, Orlando Transfer ,2082 Chatham Pl Dr, Orlando, FL,32824,(407) 433-5599
Airport Shuttles, Orlando Transportation , , Orlando, FL,32801,(407) 342-1122
DJs, Our DJ Rocks ,380 Semoran Commerce Pl, Apopka, FL,32703,(407) 509-9786
Performing Arts, Ovens Auditorium ,2700 E Independence Blvd, Charlotte, NC,28205,(704) 372-3600
Travel Services, Over The Moon Vacations , , Miami, FL,33131,(305) 741-6194
Caterers, Paellas Pa' Ella , , Orlando, FL,32829,(407) 385-7964
Paint & Sip, Paint the Town ,74 Allen St, Buffalo, NY,14202,(716) 465-6682
Photo Booth Rentals, Palmetto Party Booths ,109 Nursery Ridge Ln, Columbia, SC,29212,(803) 238-3838
Travel Agents, Pampered Life Travels , , Charlotte, NC,28226,(704) 951-7180
Cards & Stationery, Paper Skyscraper ,330 East Blvd, Charlotte, NC,28203,(704) 333-7130
Cards & Stationery, Paper Twist ,2902 Selwyn Ave, Charlotte, NC,28209,(704) 366-3100
Florists, Park Cities Petals ,6445 Cedar Springs Rd, Dallas, TX,75235,(214) 443-0002
Airport Shuttles, Park'N Ticket ,3945 Conley St, College Park, GA,30337,(404) 669-3800
Specialty Food, Parker & Otis ,324 Blackwell St, Durham, NC,27701,(919) 683-3200
Party Supplies, Party City ,5401 S Blvd, Charlotte, NC,28217,(704) 525-2541
Party & Event Planning, Party Magic Entertainment ,534 Hamburg Turnpike, West Milford, NJ,7480,(800) 539-8743
Magicians, Party Magician MrGoodfriend ,8330 Lyndon B Johnson Fwy, Dallas, TX,75243,(469) 342-9012
Party Equipment Rentals, Party Makers Event Rentals ,510 N Elm St, Greensboro, NC,27401,(336) 275-9171
Face Painting, Party People Rentals ,5773 Arrowhead Dr, Virginia Beach, VA,23462,(757) 737-9090
Party & Event Planning, Party Perfect ,2400 Magnolia Ct, Richmond, VA,23223,(804) 359-2400
Party Equipment Rentals, Party Reflections ,3006 Industrial Dr, Raleigh, NC,27609,(919) 354-2595
Party Equipment Rentals, Party Reflections ,2750 Whitehall Park Dr, Charlotte, NC,28273,(704) 332-8176
Party Equipment Rentals, Party Reflections ,196 Shop Grove Dr, Columbia, SC,29209,(803) 794-0010
Party Equipment Rentals, Party Rental Guyz , , Vandergrift, PA,15690,(724) 568-2693
DJs, Party Solution Entertainment ,5711 Bowden Rd, Jacksonville, FL,32216,(904) 503-4668
Party Supplies, Party Time Rentals ,1401 Freedom Dr, Charlotte, NC,28208,(704) 525-5400
DJs, Party With Pete , , Plano, TX,75074,(972) 904-3472
Party & Event Planning, Party With Us Professionals , , Bronx, NY,10466,(917) 848-7210
Party Supplies, Party-On Rentals ,305 Veterans Rd, Columbia, SC,29209,(855) 468-7217
Party Supplies, PartySavvy ,4315 Old William Penn Hwy, Monroeville, PA,15146,(412) 856-8368
Dance Studios, PASOFino Latin Dance Studio ,8610 Roswell Rd, Sandy Springs, GA,30350,(678) 895-6955
Performing Arts, Passion Academy ,3921 Deep Rock Rd, Henrico, VA,23233,(804) 412-8100
Custom Cakes, Pastry Works ,2319 Laurelbrook St, Raleigh, NC,27604,(919) 828-5932
Custom Cakes, Pastry Works ,2319 Laurelbrook St, Raleigh, NC,27604,(919) 828-5932
Magicians, Paul Antonio Magic ,268 Claremont Ave, Buffalo, NY,14223,(716) 587-2743
Magicians, Paul Antonio Magic ,268 Claremont Ave, Buffalo, NY,14223,(716) 587-2743
Hair Salons, Paul Mitchell The School Charlotte ,1516 Elizabeth Ave, Charlotte, NC,28204,(704) 335-0060
Makeup Artists, Paulina Perez Professional Makeup Artist ,2251 Oak St, Jacksonville, FL,32204,(904) 735-7499
Performing Arts, Peabody Institute of the Johns Hopkins University ,1 E Mount Vernon Pl, Baltimore, MD,21202,(410) 659-8100
Florists, Peachtree Flower Shop, Inc. ,2088 Briarcliff Rd NE, Atlanta, GA,30329
Florists, Peachtree Petals ,1450 W Peachtree St NW, Atlanta, GA,30309,(678) 336-1195
Party Equipment Rentals, PEAK Event Services ,15 Elkins Street, Boston, MA,2127,(617) 517-0480
Party Equipment Rentals, PEAK Event Services ,15 Elkins Street, Boston, MA,2127,(617) 517-0480
Limos, Peak Limousine & Car Service ,2300-C Stevens Mill Rd, Matthews, NC,28104,(704) 568-1200
Party Equipment Rentals, Peerless Events & Tents - Houston ,3800 W 11th St, Houston, TX,77055,(713) 231-7375
Party Equipment Rentals, Peerless Events & Tents - Houston ,3800 W 11th St, Houston, TX,77055,(713) 231-7375
Makeup Artists, Peilee Beauty + Brow Studio ,50b Mulberry St, New York, NY,10013, 
Venues & Event Spaces, Penthouse at Riverside Wharf ,125 SW North River Dr, Miami, FL,33130,(305) 400-1900
Party & Event Planning, Perez Events ,106-09 Rockaway Blvd, Ozone Park, NY,11417,(646) 296-9105
Party & Event Planning, Perez Events ,106-09 Rockaway Blvd, Ozone Park, NY,11417,(646) 296-9105
Karaoke, Perfect Event Entertainment ,4200 Whistler Ct, Raleigh, NC,27606,(919) 964-1187
Performing Arts, Performance Garage ,1515 Brandywine St, Philadelphia, PA,19130,(215) 569-4060
Performing Arts, Performer's Edge Dance Center ,195 Ashbourne Way, Davenport, FL,33897,(863) 424-7355
Session Photography, Petra Novak Boudoir ,2019 Rey Dr, Waco, TX,76712,(254) 230-3186
Personal Chefs, PhattyChow ,3200 W Colonial Dr, Orlando, FL,32805,(386) 262-3981
Dance Schools, Philadelphia Argentine Tango School ,2030 Frankford Ave, Philadelphia, PA,19125,(617) 291-3798
Dance Schools, Philadelphia Dance Theatre ,7500 Germantown Ave, Philadelphia, PA,19119,(215) 247-4272
Performing Arts, Philadelphia School of Circus Arts ,6452 Greene St, Philadelphia, PA,19119,(215) 849-1991
Dance Studios, Philly Dance Fitness ,1923 Chestnut St, Philadelphia, PA,19103,(215) 645-2717
Dance Studios, Philly Dance Fitness ,1301 Locust St, Philadelphia, PA,19107,(215) 645-2717
Gymnastics, Philly InMovement ,500 Kenilworth St, Philadelphia, PA,19147,(267) 239-0844
Session Photography, Photo Depot ,714 S Fort Hood St, Killeen, TX,76541,(254) 519-0888
Session Photography, Photo Marco Studios ,725 Ponce De León Ave NE, Atlanta, GA,30306,(404) 320-1494
Photo Booth Rentals, PhotoBoothFun , , Cary, NC,27519,(919) 504-4110
Photography Stores & Services, Picture Perfect Portrait Studio ,500 N Fort Hood Dr, Killeen, TX,76541,(254) 220-2934
Dance Schools, Piedmont School of Music & Dance ,3220 Prosperity Church Rd, Charlotte, NC,28269,(704) 971-2011
Caterers, Pinch of Thyme ,8815 Conroy-windermere Rd, Orlando, FL,32835,(407) 545-3439
Botanical Gardens, Pinecrest Garden ,11000 Red Rd, Pinecrest, FL,33156,(305) 669-6990
Venues & Event Spaces, Pinto's Farm ,14890 SW 216th St, Miami, FL,33170,(305) 258-6067
Performing Arts, Pirates Dinner Adventure ,6400 Carrier Dr, Orlando, FL,32819,(407) 206-5100
Performing Arts, Pirates Voyage ,8901 N Kings Hwy, Myrtle Beach, SC,29577,(843) 497-9700
Photo Booth Rentals, Pittsburgh Camper Booth ,132 Poplar Ridge Dr, Pittsburgh, PA,15235,(724) 351-2817
Performing Arts, Pivot Ballroom on the Main Line ,49 E Landcaster Ave, Ardmore, PA,19003,(610) 909-7718
Dance Studios, Planet Ballroom ,2293 Peachtree Rd, Atlanta, GA,30309,(404) 464-8189
Dance Studios, Planet Ballroom ,11130 State Bridge Rd, Johns Creek, GA,30022,(678) 526-6999
Dance Studios, Planet Ballroom ,3451 Ernest W Barrett Pkwy NW, Marietta, GA,30064,(770) 693-2272
Dance Studios, Planet Dance Cincinnati ,2230 Gilbert Ave, Cincinnati, OH,45206,(513) 505-6340
DJs, Planet DJs Entertainment ,141 Parkway Rd, Bronxville, NY,10708,(914) 237-6800
Caterers, Plated lounge ,2801 E Point St, East Point, GA,30344,(404) 855-5844
Caterers, Platinum Creations Catering & Events ,8878 Burnham Way, Jonesboro, GA,30238,(678) 431-2272
Party & Event Planning, Playground Atlanta ,3060 Pharr Ct N, Atlanta, GA,30305,(888) 878-7430
Limos, Plush Limo ,227 W 4th St, Charlotte, NC,28202,(855) 758-7462
Pole Dancing Classes, PoleFit Carolinas ,9826 Gilead Rd, Huntersville, NC,28078,(704) 895-7606
Dance Schools, Polelateaz ,2700 Northeast Expy, Atlanta, GA,30345,(404) 399-3358
Popcorn Shops, Popcorn Heaven ,16011 Lancaster Hwy, Charlotte, NC,28277,(803) 216-5197
Caterers, Port A Pit Barbeque ,5509 Commerce Dr, Orlando, FL,32839,(407) 851-5106
Party Equipment Rentals, Port City Rentals ,3252 Old Shell Rd, Mobile, AL,36607,(251) 471-5484
Session Photography, Portraits in Minutes , Walmart, Killeen, TX,76542,(254) 213-6770
Caterers, PoshNosh Catering ,1053 E Whitaker Mill Rd, Raleigh, NC,27604,(919) 839-6004
Florists, Posies ,376 Amsterdam Ave, New York, NY,10024,(212) 721-2260
DJs, PR Productions Services ,2625 Piedmont Rd NE, Atlanta, GA,30324,(678) 696-0888
Limos, Precision NY Chauffeur & Airport Transportation Service ,630 5th Ave, New York, NY,10111,(212) 858-9757
Limos, Precision NY Chauffeur & Airport Transportation Service ,630 5th Ave, New York, NY,10111,(212) 858-9757
Limos, Precision NY Chauffeur & Airport Transportation Service ,630 5th Ave, New York, NY,10111,(212) 858-9757
Party Equipment Rentals, Preferred Party Place ,1651 Sicklerville Rd, Sicklerville, NJ,8081,(856) 232-4700
Limos, Premier Chauffeured Transportation , , Charlotte, NC,28204,(980) 288-5122
Airport Shuttles, Premier Essential Services , , Dallas, TX,75254,(214) 718-7127
Party & Event Planning, Premier Events ,2800 Crusader Cir, Virginia Beach, VA,23453,(757) 340-2212
Party & Event Planning, Premier Events ,2800 Crusader Cir, Virginia Beach, VA,23453,(757) 340-2212
Party & Event Planning, Premier Party Planners , , Raleigh, NC,27612,(919) 699-1882
Florists, Prestige Events ,5430 Gulf Fwy, Houston, TX,77023,(713) 520-0988
Florists, Prestige Events ,5430 Gulf Fwy, Houston, TX,77023,(713) 520-0988
Limos, Prime Limo & Car Service ,2230 Joe Field Rd, Dallas, TX,75229,(214) 256-6725
Limos, Prime Limo & Car Service ,2230 Joe Field Rd, Dallas, TX,75229,(214) 256-6725
Venues & Event Spaces, Primrose Cottage ,674 Mimosa Blvd, Roswell, GA,30075,(770) 594-2299
Session Photography, Priscilla Green Photography ,1609 Sardis Rd N, Charlotte, NC,28270,(980) 230-9685
Party Equipment Rentals, Professional Party Rentals ,17 Haywood Rd, Greenville, SC,29607,(864) 627-8808
Children's Museums, Professor Lorenzo’s Carnival of Mysteries ,1805 Elm St, Cincinnati, OH,45202, 
Caterers, Proof of the Pudding ,6000 N Terminal Pkwy, Atlanta, GA,30320,(404) 684-1355
Caterers, Puff 'n Stuff Catering ,250 Rio Dr, Orlando, FL,32810,(407) 629-7833
Barre Classes, Pure Barre ,1402 N Highland Ave NE, Atlanta, GA,30306,(404) 883-3882
Marketing, PUSH Marketing & Promotions ,2870 Peachtree Rd, Atlanta, GA,30305,(404) 829-4070
Event Photography, PWP Studio ,3195 Lynnray Dr, Atlanta, GA,30340,(678) 457-4578
Caterers, QC Catering ,601 Calvert St, Charlotte, NC,28208,(704) 305-7778
Photo Booth Rentals, Queen Bee Party Rentals , , Durham, NC,27713,(919) 907-0233
Photo Booth Rentals, Queen Bee Party Rentals , , Durham, NC,27713,(919) 907-0233
Dance Studios, Queen City Ballroom ,6700 Fairview Rd, Charlotte, NC,28210, 
Private Tutors, Queen City Performing Arts ,6090 Broadway, Lancaster, NY,14086,(716) 867-7177
Taxis, Quick Ride Corp ,88 Hester St, New York, NY,10002,(212) 233-0005
Taxis, Quick Ride Corp ,88 Hester St, New York, NY,10002,(212) 233-0005
Buses, R.R Transportation , , Queens, NY,11374,(917) 682-4561
Performing Arts, Rainey Institute ,1705 E 55th St, Cleveland, OH,44103,(216) 881-1766
DJs, Raise The Roof Charlotte , , Indian Trail, NC,28079,(704) 249-4165
Southern, Ray's Southern Foods ,4150 Jonesboro Rd, Forest Park, GA,30297,(404) 835-2754
Real Estate Photography, Rebecca D'Angelo Photography , , Richmond, VA,23225,(804) 874-9709
Cocktail Bars, Recess ,705 South Woodward Ave, Tallahassee, FL,32304,(850) 570-8535
Community Service/Non-Profit, ReCity Network ,112 Broadway St, Durham, NC,27701, 
DJs, Regal Events DJ Services ,1314 South 2nd St, Wilmington, NC,28401,(843) 385-3593
Venues & Event Spaces, Regency Party Hall ,110-54 Springfield Blvd, Queens Village, NY,11429,(718) 479-4546
Bookstores, Regulator Bookshop ,720 9th St, Durham, NC,27705,(919) 286-2700
Party & Event Planning, Reign Events Space ,2801 Vaughn Plaza Rd, Montgomery, AL,36117,(334) 425-7923
DJs, Remixologists ,1178 Broadway, New York, NY,10001,(215) 301-7350
DJs, Remixologists ,1178 Broadway, New York, NY,10001,(215) 301-7350
DJs, Remixologists ,1178 Broadway, New York, NY,10001,(215) 301-7350
Party Equipment Rentals, Rent-All of Boston ,1161 Adams St, Dorchester, MA,2124,(617) 296-0500
Party Equipment Rentals, Rent-All of Boston ,1161 Adams St, Dorchester, MA,2124,(617) 296-0500
Party Supplies, Rental Depot ,88 Spring St, West Roxbury, MA,2132,(617) 327-1200
Party Supplies, Rental Depot ,88 Spring St, West Roxbury, MA,2132,(617) 327-1200
Party Equipment Rentals, Rental Time ,5025 William Flinn Hwy, Gibsonia, PA,15044,(724) 444-7200
Party Equipment Rentals, Rentals For Your Party ,8715 55th Ave, Elmhurst, NY,11373,(718) 446-6358
Party & Event Planning, Rentquest ,594 Broadway, New York, NY,10012,(212) 243-4291
Dance Studios, Rhythma Studios ,555 Whitehall St SW, Atlanta, GA,30303,(404) 496-5105
Dance Studios, Rhythmz & Motion Dance Studio ,3791 S Cobb Dr, Smyrna, GA,30080,(678) 309-5911
Couriers & Delivery Services, Richmond Express ,1804 Dabney Rd, Richmond, VA,23230,(804) 788-8080
Airport Shuttles, Richmond Limousine ,10101 W Broad St, Glen Allen, VA,23060,(804) 266-2800
Magicians, Rick Morrill Comedy Magician ,2770 Main St, Frisco, TX,75033,(214) 883-0378
Dance Studios, Rigby's Jig ,5470 W Broad St, Richmond, VA,23230,(804) 864-2300
Performing Arts, Ritz Ballroom Dance Studio ,8150 Mall Rd, Florence, KY,41042,(859) 371-1151
Dance Schools, River City Dance & Performing Arts Theatre ,2717 Buford Rd, Richmond, VA,23235,(804) 323-1330
Travel Services, Riverside Tours and Travel ,5711 Bowden Rd, Jacksonville, FL,32216,(904) 568-7094
Event Photography, Rob Greer Photography ,1502 Sawyer St, Houston, TX,77007,(713) 510-3392
Performing Arts, Rob Westcott Magic ,4165 Cheswick Ln, Virginia Beach, VA,23455,(757) 986-9050
Performing Arts, Rob Westcott Magic ,4165 Cheswick Ln, Virginia Beach, VA,23455,(757) 986-9050
Performing Arts, Rob Westcott Magic ,4165 Cheswick Ln, Virginia Beach, VA,23455,(757) 986-9050
Venues & Event Spaces, Robinson Theater Community Arts Center ,2903 Q St, Richmond, VA,23223,(804) 562-9133
Dance Schools, Rock Steady School of Ballroom Dance Atlanta ,270 Carpenter Dr NE, Atlanta, GA,30328,(404) 254-1491
DJs, Rock-Da-House Entertainment , , Charlottesville, VA,22901,(434) 326-8953
Travel Services, Rockett Getaways , , Atlanta, GA,30306,(770) 329-2530
DJs, Rockjocks Professional Party DJs ,214 Television Cir, Savannah, GA,31406,(912) 695-1008
DJs, Rockmaster DJ Entertainment Group ,3707 Virginia Beach Blvd, Virginia Beach, VA,23452,(757) 408-7113
Caterers, Rocky Top Catering ,5000 Departure Dr, Raleigh, NC,27616,(919) 850-2340
Caterers, Rocky Top Catering ,5000 Departure Dr, Raleigh, NC,27616,(919) 850-2340
Magicians, Ronn Winter Magic & Mentalism , , Charlotte, NC,28204,(864) 916-9442
Caterers, Roots Catering ,3410 St Vardell Ln, Charlotte, NC,28217,(980) 277-2726
Florists, Rosa Rosa Flowers ,831A Lexington Ave, New York, NY,10065,(212) 935-4706
Florists, Rose Jasmine Flowers & Decor  ,255 Village Pkwy, Marietta , GA,30067,(404) 494-6473
Florists, Roses & Blooms ,599 Lexington Ave, New York, NY,10022,(212) 758-7673
Florists, Roses & More Florist ,4724 Greenville Ave, Dallas, TX,75206,(214) 361-6991
Video/Film Production, RTP Photo and Video ,162 Wind Chime Ct, Raleigh, NC,27615,(919) 723-8453
Session Photography, Rumi Grey Images , , Jacksonville, FL,32225,(904) 800-9597
Travel Services, Rupali Travel & General Services ,3714 73rd St, Jackson Heights, NY,11372,(718) 505-9705
Venues & Event Spaces, Rust Studios and Events ,4700 Lorain Ave, Cleveland, OH,44102,(330) 962-1923
Dance Studios, RW Latin Dance ,6851 Albemarle Rd, Charlotte, NC,28212,(704) 449-8112
Travel Services, S & J Vacations ,1039 Bergen St, Brooklyn, NY,11216,(718) 493-3200
Travel Services, S N Travel & Tours ,3711 74th St, Jackson Heights, NY,11372,(718) 639-9700
Hair Salons, Salon Eden ,240 Newton Rd, Raleigh, NC,27615,(919) 322-2390
Hair Salons, Salon Modello ,674 Highland Ave NE, Atlanta, GA,30312,(404) 681-3670
Hair Salons, Salon of Evidence Uptown ,212 S Tryon St, Charlotte, NC,28281,(704) 370-0099
Dance Studios, Salsa Central ,930 Washington Ave, Miami Beach, FL,33139,(786) 357-6827
Yoga, Salsa City Fitness ,29 S Norwich Rd, Troy, OH,45373,(937) 875-7082
Dance Studios, Salsa Fever - Miami ,501 Lincoln Rd, Miami Beach, FL,33139,(305) 600-2434
Dance Schools, Salsa for the Soul ,2 Wallace Ave, Buffalo, NY,14214,(716) 980-7851
Dance Studios, Salsa Heat Dance Studio ,10685 E Colonial Dr, Orlando, FL,32817,(407) 275-0943
Dance Studios, Salsa Heat Dance Studio ,401 N Main St, Kissimmee, FL,34744,(407) 275-0943
Dance Studios, Salsa In the Suburbs ,1245 N Providence Rd, Media, PA,19063,(610) 800-8182
Dance Studios, Salsa Kings ,13944 SW 8th St, Miami, FL,33184,(305) 553-0555
Dance Schools, Salsambo Dance Lessons & Entertainment ,800 Miami Cir NE, Atlanta, GA,30324,(770) 899-2166
Photo Booth Rentals, Sami Roy Photography ,2513 North Landing Rd, Virginia Beach, VA,23456,(978) 821-1669
Party & Event Planning, Sandbox Marketing & Promotions , , Dallas, TX,75204,(504) 321-3283
Photographers, Sandra Reid Photography ,340 E 52nd St, Manhattan, NY,10022,(415) 992-1269
Venues & Event Spaces, Sapphire Creek Winery & Gardens ,16965 Park Cir Dr, Chagrin Falls, OH,44023,(440) 543-7777
Event Photography, Sarah Hedden Photography ,1450 Flagler Ave, Jacksonville, FL,32207,(904) 504-1759
Boudoir Photography, Sarah McDaniel Studio ,112 Delaware Ave, Norfolk, VA,23504,(757) 727-3241
Caterers, Savory ,15 W 39th St, New York, NY,10018,(212) 757-6100
Party & Event Planning, Savvy Affairs , , Charlottesville, VA,22901,(434) 328-0533
DJs, SC Party DJ ,804 Bindon Ln, Simpsonville, SC,29680,(864) 367-9546
Musical Instruments & Teachers, School of Rock ,4300 Pouncey Tract Rd, Glen Allen, VA,23060,(804) 212-3900
Hair Salons, Scissors Hair Studio ,4 1/2 N 18th St, Richmond, VA,23223,(804) 358-7410
Session Photography, Scott Clinton Photography ,401 Hawthorne Ln, Charlotte, NC,28204,(704) 916-9749
DJs, Scottify ,260 Queen Street W, Toronto, ON,M5V 0C5,+1 416-729-1973
Florists, Scotts Flowers NYC ,15 W 37th St, New York, NY,10018,(212) 727-2800
Venues & Event Spaces, Secret Gardens Miami ,14450 SW 248th St, Homestead, FL,33032,(305) 507-7405
Magicians, See Magic Live , , Orlando, FL,32801,(877) 567-8921
Travel Services, Seven Hills Global , , Manhattan, NY,10023,(646) 543-1711
Yoga, Seven Studios ,275 South 3rd St, Columbus, OH,43215,(614) 702-7072
Specialty Schools, sew fun! parties and more ,8155 Ardrey Kell Rd, Charlotte, NC,28277,(980) 297-6008
Performing Arts, Shadowbox Live ,503 S Front St, Columbus, OH,43215,(614) 416-7625
Dance Schools, Sherry Martin Dance ,5479 Main St, Buffalo, NY,14221,(716) 626-2498
Magicians, Shin Lim ,445 S Magnolia Ave, Orlando, FL,32801, 
Florists, Shoots and Blooms of D.C , , Washington, DC, DC,20010
Dance Schools, ShowBiz Dance Academy ,2906 W US Hwy 22 And 3, Maineville, OH,45039,(513) 226-8405
DJs, Showcase Sound ,14 Pleasant Street, Fairport, NY,14450,(585) 388-1699
Photo Booth Rentals, ShutterBooth ,2131 Woodruff Rd, Greenville, SC,29607,(864) 715-3125
Photo Booth Rentals, ShutterBooth ,2131 Woodruff Rd, Greenville, SC,29607,(864) 715-3125
Photo Booth Rentals, ShutterBooth Charlotte Photo Booth ,715 N Church St 120, Charlotte, NC,28202,(704) 469-8420
Bars, Side Bar ,118 S Orange Ave, Orlando, FL,32801,(407) 649-0000
Vehicle Wraps, Sign King Solutions ,658 Griffith Rd, Charlotte, NC,28217,(704) 780-3499
DJs, Signature DJs , , Williamsburg, VA,23185,(757) 707-4340
DJs, Signature Entertainment ,20 Sherborne Ave, Lancaster, NY,14086,(716) 684-9800
Dance Schools, Silver Lining Dance Acadamy ,3723-A Forestbrook Rd, Myrtle Beach, SC,29588,(843) 236-6226
Caterers, Simply Delicious NC Catering ,6501 Mt Herman Rd, Raleigh, NC,27617,(919) 528-7400
Dance Studios, Siti Dance Studio ,2755 Philmont Ave, Huntingdon Valley, PA,19006,(215) 947-7484
Marketing, Sky At Twelve Media Group ,1230 Peachtree St N E, Atlanta, GA,30309,(678) 538-6509
Dance Studios, Sky Gym ,3550 Broad St, Atlanta, GA,30341,(678) 775-8759
Videographers, Sky Simone Photography + Film ,1400 North Ave, Atlanta, GA,30318,(619) 888-6098
Lounges, SkyLounge ,110 Marietta St NW, Atlanta, GA,30303,(404) 521-2250
Performing Arts, Sleep No More ,530 W 27th St, New York, NY,10001,(212) 904-1880
DJs, Smoov Entertainment , , Yulee, FL,32097,(904) 242-6208
Photo Booth Rentals, SNAP! Studio Booth ,1001 N Orange Ave, Orlando, FL,32801,(321) 300-5833
Blow Dry/Out Services, So Chic Beauty ,3224A West Cary St, Richmond, VA,23221,(804) 240-2912
Music Venues, SOB's ,204 Varick St, New York, NY,10014,(212) 243-4940
Session Photography, Social Studio PGH ,1817 E Carson St, Pittsburgh, PA,15203,(412) 889-4882
Performing Arts, Socialsport Dance Club ,1634 Old York Rd, Abington, PA,19001,(215) 784-9087
Dance Schools, Society Hill Dance Academy ,1919 E Passyunk Ave, Philadelphia, PA,19148,(215) 574-3574
Party & Event Planning, Soho Event Rentals ,8111 Mcgowin Dr, Fairhope, AL,36532,(251) 517-7322
Social Clubs, Sokol Club ,2912 E Carson St, Pittsburgh, PA,15203,(412) 488-7188
Caterers, Something Classic ,1860 Lindbergh St, Charlotte, NC,28208,(704) 377-4202
Makeup Artists, Sonia Designer Mehndi - Henna Artist , , Mount Holly, NC,28120,(470) 424-3437
DJs, Sonido Latin Entertainment , , Arlington, TX,76011,(214) 394-1236
Performing Arts, SOUL Aerial & Performing Arts Center ,1632 Ownby Ln, Richmond, VA,23220,(804) 310-4858
Karaoke, Sound Machines Professional Dj Service , , Savannah, GA,31419,(912) 220-4081
Photo Booth Rentals, Sound Sensation Entertainment , , Kissimmee, FL,34744,(407) 748-7669
DJs, Sound Sensations ,5605 FM423, Frisco, TX,75034,(214) 937-9759
DJs, SoundWave DJ and Photo ,11500 Transit Rd, East Amherst, NY,14051,(716) 639-9283
Venues & Event Spaces, Southern Charm Events ,534 Waterford Glen Way, Rock Hill, SC,29730,(803) 329-7143
Vape Shops, Southern Cloud Cartel ,6109 S Cooper St, Arlington, TX,76001,(214) 289-0752
Performing Arts, Southside Arts Music & Theatre ,1685 Anderson Hwy, Powhatan, VA,23139,(804) 615-9477
Shared Office Spaces, Spaces NoMa ,1140 3rd St NE, Washington, DC, DC,20002
Photography Stores & Services, Spartan Photo Center ,108 Garner Rd, Spartanbrug, SC,29303,(864) 583-6835
Party Equipment Rentals, Special Events of New England ,320 Rockingham Rd, Auburn, NH,3032,(603) 624-8389
Party Equipment Rentals, Special Events of New England ,320 Rockingham Rd, Auburn, NH,3032,(603) 624-8389
Florists, Special Touch Flowers ,1310 Corporation Pkwy, Raleigh, NC,27610,(919) 615-2021
DJs, splash dj ,3817 North Light Dr, Chester, VA,23831,(804) 616-1448
Event Photography, Stacey Vaeth Photography , , Washington, DC, DC,20003
Audio/Visual Equipment Rental, Stage My Events ,10 Technology Dr, Garner, NC,27529,(919) 239-0078
Party & Event Planning, Stan The Magic Man ,427 S 5th St, Miamisburg, OH,45342,(937) 866-9810
Florists, Starbright Floral Design ,140 W 26th St, New York, NY,10001,(212) 229-1610
Magicians, Stark Magic , , Mckinney, TX,75069,(601) 688-6116
Dance Studios, Starz Ballroom ,24355 Lorain Rd N, North Olmsted, OH,44070,(440) 871-7827
Magicians, Stefan Oswald , , Kissimmee, FL,34746,(615) 624-4286
Party & Event Planning, Stephanie's Kids Party&Spa ,1100 Cedar Rd, Chesapeake, VA,23322,(757) 842-4177
Limos, Sterling worldwide Limousine , , Charlotte, NC,28277,(704) 999-3232
Florists, Sticks + Stems ,2267 SW 22nd St, Miami, FL,33145,(305) 965-0108
Dance Studios, Storm Ballroom Dance Centre ,1845 Marlton Pike E, Cherry Hill, NJ,8003,(856) 770-4294
Event Photography, Stout Photography , , Jacksonville, FL,32210,(904) 370-3314
Breweries, Strangeways Brewing ,2277A Dabney Rd, Richmond, VA,23230,(804) 303-4336
Party & Event Planning, Strawberry Event Planning & Party Rental ,973 East 233rd St, Bronx, NY,10466,(347) 449-7650
Florists, Stroud's Florist ,3201 Beatties Ford Rd, Charlotte, NC,28216,(704) 399-3374
Airport Shuttles, STS limousine and Airport Transportation ,6000 N Terminal Pkwy, Atlanta, GA,30320,(404) 662-0606
Dance Studios, Stuart Nichols , Everybody Dance, Orlando, FL,32805,(321) 662-5565
Session Photography, Studio Bee Photography , , Midlothian, VA,23832,(571) 882-9160
Session Photography, Studio by Sehee , , New York, NY,10018, 
Art Galleries, Studio Gallery ,2108 R St NW, Washington, DC, DC,20008
Dance Studios, Studio K ,11951 International Dr S, Orlando, FL,32821,(407) 778-4607
Dance Studios, Studio Rouge ,4575 N High St, Columbus, OH,43214, 
Makeup Artists, Stush Beauty Lounge ,4969 Roswell Rd, Sandy Springs, GA,30342,(404) 600-4794
Hair Salons, StyleBar ,1225 S Church St, Charlotte, NC,28203,(980) 299-1765
Hair Salons, Stylebox Salon ,651 Bergen St, Brooklyn, NY,11238,(718) 673-6767
DJs, Stylus ,1041 Investment Blvd, Apex, NC,27502,(919) 346-4669
Party & Event Planning, Subsonic Event DJs ,6322 Appian Way, Orlando, FL,32807,(321) 262-2895
Party & Event Planning, Sugar N Spice ,2030 S Douglas Rd, Coral Gables, FL,33134,(305) 310-2333
Travel Agents, Sun Express Travel ,900 Hylan Blvd, Staten Island, NY,10305,(718) 720-3600
Travel Agents, Sun Express Travel ,900 Hylan Blvd, Staten Island, NY,10305,(718) 720-3600
Flowers & Gifts, Sunshine Flowers ,3100 NW 72nd Ave, Miami, FL,33122,(305) 599-2155
Bounce House Rentals, Sunshine Party & Event Rental ,49207 Calcutta Smith Ferry Rd, East Liverpool, OH,43920,(330) 932-8822
Party Equipment Rentals, Superheroes for parties ,2594 Johnstown Rd, Columbus, OH,43219,(614) 224-9568
Photo Booth Rentals, Supermix Entertainment ,61-43 186th St, Fresh Meadows, NY,11365,(866) 521-0090
Makeup Artists, Susan Lim Makeup Artist , , Washington, DC, DC,20001
Caterers, Sweet Basil Catering ,233 W 77th St, New York, NY,10024,(646) 368-1699
Caterers, Sweet Magnolia Catering , , Atlanta, GA,30144,(404) 769-4803
Event Photography, Sweet Trade Photography , , Virginia Beach, VA,23462,(240) 483-3724
Candy Stores, Sweeties Candy Shop ,143 E Wait Ave, Wake Forest, NC,27587,(919) 263-9105
Candy Stores, Sweeties Candy Shop ,143 E Wait Ave, Wake Forest, NC,27587,(919) 263-9105
Venues & Event Spaces, Swift Creek Mill Theatre ,17401 US-1, South Chesterfield, VA,23834,(804) 748-5203
Swimming Lessons/Schools, SwimRVA ,5050 Ridgedale Pkwy, Richmond, VA,23234,(804) 271-8271
Advertising, SWOOP Miami ,333 S E 2nd Ave, Miami, FL,33131,(305) 330-9527
Dance Studios, Symmetry Dance Wellness ,1529 South St, Philadelphia, PA,19146,(267) 601-1442
Hair Stylists, Tailored Style ,600 Indian Trl, Harker Heights, TX,76548,(254) 338-5394
Dance Studios, Take The Lead Dance Studio ,320 Lantana Dr, Hockessin, DE,19707,(302) 234-0909
Cinema, Tallahassee Film Society ,918-1 /2 Railroad Ave, Tallahassee, FL,32310,(850) 386-4404
Performing Arts, Tango Bohemia ,4484 Peachtree Rd, Atlanta, GA,30319,(404) 754-8272
Event Photography, Tanya Bondarenko Photography , , Jacksonville, FL,32225,(503) 866-3386
Cosmetics & Beauty Supply, Tapp Beauty ,607 Providence Rd, Charlotte, NC,28207,(704) 339-0010
Photo Booth Rentals, TapSnap , , Raleigh, NC,27601,(919) 348-1205
Popcorn Shops, Tastebuds Popcorn - Concord ,3805 Concord Pkwy S, Concord, NC,28027,(980) 781-5798
Party Equipment Rentals, Taylor Rental ,352 McGrath Hwy, Somerville, MA,2143,(617) 666-7368
Machine & Tool Rental, Taylor Rental ,5901 Baptist Rd, Pittsburgh, PA,15236,(412) 833-7300
Party Equipment Rentals, Taylor Rental ,352 McGrath Hwy, Somerville, MA,2143,(617) 666-7368
Tea Rooms, Tea With Mrs. B ,136 W Jefferson St, Falls Church, VA,22046,(202) 448-2930
Pole Dancing Classes, Teazers Pole Fitness & Dance Studio ,568 George Bishop Pkwy, Myrtle Beach, SC,29579,(843) 251-1277
Hair Salons, Teenies Beauty Salon ,45396 S Mickler St, Callahan, FL,32011,(904) 879-1941
Venues & Event Spaces, Tenk West Bank ,2111 Center St, Cleveland, OH,44113, 
Party Equipment Rentals, Tent Guys ,2322 N Tryon St, Charlotte, NC,28206,(980) 228-6999
Caterers, Terrace On The Park ,52-11 111th St, Corona, NY,11368,(718) 592-5000
Event Photography, Tex Photo Service , , Killeen, TX,76541,(254) 501-4073
Makeup Artists, The Artistry of KThompson ,304 Turner Rd, Richmond, VA,23225,(804) 939-2380
Yoga, The Atlanta Dance Academy ,2335 Cheshire Bridge Rd, Atlanta, GA,30324,(678) 827-3737
Balloon Services, The Balloon Squad ,100 Columbiana Cir, Columbia, SC,29212,(803) 888-7235
Dance Studios, The Ballroom Club ,10960 Three Chopt Rd, Richmond, VA,23233,(804) 447-3082
Makeup Artists, The Beauty Factorie ,2017 S Orange Ave, Orlando, FL,32806,(407) 720-6224
Dance Studios, The Bellydance Academy ,2495 Main St, Buffalo, NY,14214,(716) 983-7788
Florists, The Blossom Shop ,2242 Park Rd, Charlotte, NC,28203,(704) 376-3526
Florists, The Blossom Shop ,1500 E Morehead St, Charlotte, NC,28207,(704) 372-4447
Makeup Artists, The Blow Dry Bar ,6266 SW 8th St, West Miami, FL,33144,(786) 580-3199
Venues & Event Spaces, The Campbell Lodge ,3237 Spottswood St, Raleigh, NC,27615,(919) 870-2871
Chocolatiers & Shops, The Chocolate Boutique ,8480 Honeycutt Rd, Raleigh, NC,27615,(919) 322-0960
Chocolatiers & Shops, The Chocolate Boutique ,8480 Honeycutt Rd, Raleigh, NC,27615,(919) 322-0960
Chocolatiers & Shops, The Chocolaterie Luxury Chocolates ,3099 Main St, Duluth, GA,30096,(678) 585-3338
Performing Arts, The Cirque Magique ,6400 Carrier Dr, Orlando, FL,32819,(407) 206-5102
Tennis, The Club at Harper's Point ,8675 E Kemper Rd, Cincinnati, OH,45249,(513) 489-9700
Hair Salons, The Collective ,280 Commerce St, Southlake, TX,76092,(817) 881-3218
Graphic Design, The Creative Stack , , Charlotte, NC,28226,(704) 488-8941
Party & Event Planning, The Creative's Loft ,3841 NE 42nd Ave, Miami, FL,33137,(305) 297-5767
Travel Services, The Cruise & Vacation Authority ,1760 Powers Ferry Rd SE, Marietta, GA,30067,(800) 326-4971
Venues & Event Spaces, The Cruz Building ,3157 Commodore Plz, Miami, FL,33133,(305) 508-9500
Travel Agents, The Cuban Guru ,782 NW 42nd Ave, Miami, FL,33126,(786) 353-9915
Venues & Event Spaces, The Curtiss Mansion ,500 Deer Run, Miami Springs, FL,33166, 
Dance Studios, The Dance ,6185 Huntley Rd, Columbus, OH,43229,(740) 641-9202
Performing Arts, The Dance Teacher ,429 Gaston Foster Rd, Orlando, FL,32807,(407) 273-9860
Party Equipment Rentals, The Decor Stop ,109 South Ozone Park, Queens, NY,11420,(561) 800-2365
Florists, The English Garden ,6308 Angus Dr, Raleigh, NC,27617,(919) 341-6650
Florists, The Flower Cupboard ,4216 NW Cary Pkwy, Cary, NC,27513,(919) 467-4161
Florists, The Flower Diva ,219 Main St, Pineville, NC,28134,(704) 889-3482
Venues & Event Spaces, The Forevermore Farm ,135 Waldon Rd, Moore, SC,29369,(864) 497-3099
Venues & Event Spaces, The Foundry ,42-38 9th St, Long Island City, NY,11101,(718) 786-7776
Community Service/Non-Profit, The Frontier at Research Triangle Park ,800 Park Offices Dr, Durham, NC,27703,(919) 549-8181
Tea Rooms, The Ginger Room ,61 Roswell St, Alpharetta, GA,30009,(678) 399-9964
Venues & Event Spaces, The Glass Box ,230 Fayetteville St, Raleigh, NC,27601,(919) 459-3212
Art Galleries, The Granite Room ,211 Peters St, Atlanta, GA,30313,(404) 221-0201
Performing Arts, The Great Magic Hall ,5770 W Irlo Bronson Memorial Hwy, Orlando, FL,34746,(407) 507-3987
Jewelry, The Green Monkey ,1217 Hillsborough St, Raleigh, NC,27603,(984) 200-5682
Hair Salons, The Junction Salon & Bar ,327 W Davie St, Raleigh, NC,27601,(919) 449-7144
Spray Tanning, The Key to Glam Boutique ,1632 Park Ave, Orange Park, FL,32073,(904) 272-4789
Magicians, The Kilted Magician , , South Lyon, MI,48178,(248) 921-0562
Party & Event Planning, The Klumsy Moose ,1400 Kempsville Rd, Chesapeake, VA,23320,(757) 312-0970
Makeup Artists, The Lala Girl , , Charlotte, NC,28209, 
Performing Arts, The Latin Ballet of Virginia ,2880 Mountain Rd, Glen Allen, VA,23060,(804) 356-3876
Art Galleries, The Light Factory ,1817 Central Ave, Charlotte, NC,28205,(704) 333-9755
Gyms, The Little Gym ,37450 Colorado Ave, Avon, OH,44011,(440) 934-0494
Gyms, The Little Gym ,8922 Darrow Rd, Twinsburg, OH,44087,(330) 405-9640
Fitness & Instruction, The Little Gym of Polaris ,8645 Sancus Blvd, Columbus, OH,43240,(614) 430-3355
Gymnastics, The Little Gym of Rocky River ,19885 Center Ridge Road, Rocky River, OH,44126,(440) 331-5151
Venues & Event Spaces, The M Building ,194 NW 30th St, Miami, FL,33127,(305) 573-2130
Popcorn Shops, The Mad Popper ,105 W NC-54, Durham, NC,27713,(919) 484-7677
Popcorn Shops, The Mad Popper ,105 W NC-54, Durham, NC,27713,(919) 484-7677
Paint & Sip, The Magic Canvas ,2012 Bridgemill Dr, Indian Land, SC,29707,(803) 619-9199
Performing Arts, The Magic Duel ,1127 Connecticut Ave NW, Washington, DC, DC,20036
Performing Arts, The Magic Duel ,1127 Connecticut Ave NW, Washington, DC, DC,20036
Magicians, The Magician ,1170 Broadway, New York, NY,10001,(212) 796-1500
Venues & Event Spaces, The Majestique ,5309 E Independence Blvd, Charlotte, NC,28212,(888) 405-9824
Makeup Artists, The Makeup Addict ,4801 Hargrove Rd, Raleigh, NC,27616,(919) 508-6123
Makeup Artists, The Makeup Unlimited ,1830 Piedmont Ave, Atlanta, GA,30324,(404) 425-2229
Dance Clubs, The Mansion Elan ,3595 Clairmont Rd, Atlanta, GA,30319,(404) 997-6900
Party Equipment Rentals, The Margarita Man ,1920  Lynbridge Dr, Charlotte, NC,28270,(704) 651-8184
Hotels, The Mayton ,301 S Academy St, Cary, NC,27511,(919) 670-5000
Venues & Event Spaces, The Metropolitan Building ,4401 11th St, Long Island City, NY,11101,(718) 784-3716
DJs, The Mix DJs Entertainment ,3400 Coral Way, Miami, FL,33145,(786) 286-8089
Dance Studios, The ML Dance Academy ,2002 Officeview Pl, Reynoldsburg, OH,43068,(614) 868-3400
Music Venues, The Music Camp ,190 Childress Rd, Spartanburg, SC,29307,(864) 978-5515
Venues & Event Spaces, The Palmer Building ,2601 E 7th St, Charlotte, NC,28204,(704) 331-4737
Party Supplies, The Party Enthusiast ,595 E Crossville Rd, Roswell, GA,30075,(470) 514-5649
Performing Arts, The Philadelphia Dance Academy ,219 Cuthbert St, Philadelphia, PA,19106,(215) 922-2422
Caterers, The Picnic Basket Catering ,1508 E Franklin St, Chapel Hill, NC,27514,(919) 490-5796
Party & Event Planning, The Pool at Dallas Power & Light ,222 Browder St, Dallas, TX,75201,(469) 629-6119
Venues & Event Spaces, The Promenade Dance Studio ,2605 Lord Baltimore Dr, Baltimore, MD,21244,(443) 300-3904
Venues & Event Spaces, The Red Door ,4600 Rockbridge Rd SW, Stone Mountain, GA,30083,(404) 519-7535
Venues & Event Spaces, The Roof at Ponce City Market ,675 Ponce De Leon Ave NE, Atlanta, GA,30308,(770) 999-1530
Venues & Event Spaces, The Rooftop on Ponce ,2990 Ponce De Leon Blvd, Miami, FL,33134,(305) 448-2330
Venues & Event Spaces, The Royal Banquet & Conference Center ,3801 Hillsborough St, Raleigh, NC,27607,(919) 621-0540
Venues & Event Spaces, The Sacred Space Miami ,105 NE 24th St, Miami, FL,33137,(786) 621-5006
Venues & Event Spaces, The Sherwood Forest Event Center ,12900 Tinkers Creek Rd, Valley View, OH,44125,(216) 990-4496
Dance Clubs, The Social Club ,2009 Sansom St, Philadelphia, PA,19103,(215) 561-0323
Party Equipment Rentals, The Space Walker LLC ,1514 W St, Montgomery, AL,36106,(334) 546-8116
Venues & Event Spaces, The Stave Room ,199 Armour Dr NE, Atlanta, GA,30324,(404) 962-8702
Caterers, The Stuffed Cuban , , Miami, FL,33134,(305) 619-2921
Museums, The Valentine ,1015 E Clay St, Richmond, VA,23219,(804) 649-0711
Observatories, The View of DC ,1201 Wilson Blvd, Arlington, VA,22209,(703) 769-4690
Makeup Artists, The Vintage Pair ,740 N Walnut Creek Dr, Mansfield, TX,76063,(682) 200-3102
DJs, The Violin Guy ,2807 Allen St, Dallas, TX,75204,(214) 543-6138
Venues & Event Spaces, The Voodoo Room ,222 Fayetteville St, Raleigh, NC,27601,(919) 832-6082
Performing Arts, The Wagsters Magic Theatre ,5535 Olde Towne Rd, Williamsburg, VA,23188,(877) 924-7837
Performing Arts, The Wagsters Magic Theatre ,5535 Olde Towne Rd, Williamsburg, VA,23188,(877) 924-7837
Pubs, The Winchester Pub ,6164A Falls Of Neuse Rd, Raleigh, NC,27609, 
Gyms, The Y in Catonsville ,850 S Rolling Rd, Catonsville, MD,21228,(410) 747-9622
Dance Studios, The Zebra Room ,2609 Gowen St, Orlando, FL,32790,(407) 761-9122
Performing Arts, Theatre Tallahassee ,1861 Thomasville Rd, Tallahassee, FL,32303,(850) 224-8474
Hair Stylists, Therapy Hair Salon and Spa ,304 E Worthington Ave, Charlotte, NC,28203,(980) 406-3363
Party Equipment Rentals, Thomas Equipment & Party Rentals ,3435 South Blvd, Charlotte, NC,28209,(704) 523-5503
Hair Salons, Thomas Shelton Hair Design ,2024 P St NW, Washington, DC, DC,20036
Machine & Tool Rental, Thompson Rental Services ,10135 Two Notch Rd, Columbia, SC,29223,(803) 699-6313
Caterers, Three Fat Guys BBQ Catering , , Douglasville, GA,30135,(678) 561-7037
American (New), THROW Social ,1401 Okie St NE, Washington, DC, DC,20001
Session Photography, Tiffany Ward Photography , , Tallahassee, FL,32303, 
Caterers, TIN Kitchen , , Charlotte, NC,28202,(704) 750-0477
Event Photography, Tina Krohn Photography ,2233 Wisconsin Ave, Washington, DC, DC,20007
Limos, TNT Limousine ,10124 W Broad St, Richmond, VA,23060,(804) 965-0990
Photographers, Tom Daly Photography ,421 Park St, Charlottesville, VA,22902,(434) 409-3287
DJs, Tom's Tunes ,2023 Royal Pines, New Bern, NC,28560,(252) 637-6567
Venues & Event Spaces, Top of the Town ,1400 14th St N, Arlington, VA,22209,(703) 387-8696
Tours, Top Star International Travel Inc. ,36-40 Main St, New York, NY,11354,(718) 886-7797
Florists, Tosca Flowers ,4465 SW 8th St, Coral Gables, FL,33134,(305) 446-4411
Tobacco Shops, Total Wine ,550 Seaboard St, Myrtle Beach, SC,29577,(843) 353-5904
Tobacco Shops, Total Wine ,2857 Katy Fwy, Houston, TX,77007,(713) 324-3718
Limos, Town Car International ,36-36 33rd St, Astoria, NY,11106,(212) 727-7800
Gyms, Town of Tonawanda Aquatic and Fitness Center ,1 Pool Plz, Tonawanda, NY,14223,(716) 876-7424
Web Design, Townsquare Interactive ,200 S Tryon St, Charlotte, NC,28202,(855) 463-5490
Dance Schools, Towson Dance Studio ,9486 Deereco Rd, Lutherville Timonium, MD,21093,(410) 828-6116
Party & Event Planning, Toy Bros Entertainment ,3481 Walden Ave, Depew, NY,14043,(716) 479-1133
Sewing & Alterations, Tracy's Sewing Studio ,2655 Olson Dr, Kettering, OH,45420,(937) 301-3112
Travel Services, Travel Advisors Group ,2 Fairfield Blvd, Ponte Vedra Beach, FL,32082,(904) 642-6909
Travel Services, Travel Divas , , Atlanta, GA,30321,(800) 709-4340
Travel Services, Travel Is Life ,8712 Lindholm Dr, Huntersville, NC,28078,(844) 938-7285
Travel Services, Travelushious TRIPscape , , Brooklyn, NY,11201,(866) 860-1064
Cooking Classes, Tre Cooking Concepts ,8200 Preston Rd, Plano, TX,75024,(214) 296-2168
Performing Arts, Treasure Tavern ,6400 Carrier Dr, Orlando, FL,32819,(407) 206-5102
Florists, Trellis Floral ,4421 Six Forks Rd, Raleigh, NC,27609,(919) 823-2200
Party & Event Planning, Tri-County Rentals ,5619 Sc Hwy 153, Easley, SC,29640,(864) 295-8775
Party Equipment Rentals, Triangle Party Rentals ,3600 N Duke St, Durham, NC,27704,(800) 778-1979
Party Equipment Rentals, Triangle Party Rentals ,3600 N Duke St, Durham, NC,27704,(800) 778-1979
Florists, Trias Flowers and Gifts ,6520 Bird Rd, Miami, FL,33155,(786) 476-1553
Party & Event Planning, Trinity Event Staffing ,25 Highland Park Village, Dallas, TX,75205,(972) 898-2806
DJs, True Djs of Dallas ,2925 Elm St, Dallas, TX,75226,(469) 702-1970
Performing Arts, Twisted Dog Productions ,2061 Madison Rd, Madison, NC,27025,(336) 453-8885
Performing Arts, Twisted Dog Productions ,2061 Madison Rd, Madison, NC,27025,(336) 453-8885
Dance Studios, UB GSA Argentine Tango Club , Suny Buffalo, Buffalo, NY,14215, 
Gyms, UCF Recreation and Wellness Center ,4000 Central Florida Blvd, Orlando, FL,32816,(407) 823-2408
Town Car Service, Ultimate Black Car ,2296 2nd Ave, New York, NY,10035,(917) 412-5000
Town Car Service, Ultimate Black Car ,2296 2nd Ave, New York, NY,10035,(917) 412-5000
Venues & Event Spaces, Uncle Bob's Western Corral ,565 Kirk Rd, Elkton, MD,21921,(410) 398-1381
Dance Schools, Uncle Marc's School of Dance , , Richmond, VA,23220,(804) 216-1441
Magicians, Uncle Sam's Magic and Balloon Show , , Augusta, GA,30906,(706) 945-2053
Magicians, Uncle Sam's Magic and Balloon Show , , Augusta, GA,30906,(706) 945-2053
Caterers, Unforgettable Food Affairs ,5533 Nc Highway 42 W, Garner, NC,27529,(919) 662-7678
Limos, United Global Airport Transportation & Chauffeur Services ,4355 Cobb Pkwy, Atlanta, GA,30339,(404) 444-1692
Gyms, University City Branch YMCA ,8100 Old Mallard Creek Rd, Charlotte, NC,28262,(704) 716-6700
Party Equipment Rentals, Upstate Event Services ,217 Donaldson Rd, Greenville, SC,29605,(864) 220-1220
Party Equipment Rentals, Upstate Event Services ,217 Donaldson Rd, Greenville, SC,29605,(864) 220-1220
Party & Event Planning, Urban Firm Entertainment ,235 Peachtree St NE, Atlanta, GA,30303,(800) 843-7550
Travel Services, Vacation Spirit ,2202 Ave X, Brooklyn, NY,11235,(718) 934-8881
Travel Agents, Vacations By Heather ,397 Court St, Brooklyn, NY,11231,(917) 533-4877
Travel Agents, Vacations By Heather ,397 Court St, Brooklyn, NY,11231,(917) 533-4877
Dance Studios, Valeo Dance Fitness Studio ,2715 Peachtree Rd NE, Atlanta, GA,30305,(404) 513-3334
Performing Arts, Valley Forge Dance School ,216 W Beidler Rd, King of Prussia, PA,19406,(610) 337-1772
Limos, Van in Black , , Bostic, NC,28018,(800) 903-2503
Hair Stylists, Vanguard Hair Studio ,2005 8th Ave, Fort Worth, TX,76110,(817) 922-0577
Venues & Event Spaces, Vault ,2017 9th St, Cleveland, OH,44115,(216) 331-6327
Caterers, Versailles Palace ,6334 Austin St, Rego Park, NY,11374,(718) 459-2800
Caterers, Versailles Palace ,6334 Austin St, Rego Park, NY,11374,(718) 459-2800
Aerial Fitness, Vertical Addiction Baltimore ,6600 Baltimore National Pike, Catonsville, MD,21228,(443) 251-5822
Dance Studios, Vertical Joe's ,976 Jefferson St NW, Atlanta, GA,30318,(678) 753-5637
Party & Event Planning, VIBEvents Group , , Chesapeake, VA,23320,(757) 810-8371
Makeup Artists, Victoria Berkeley Beauty ,0 E 4th St, Richmond, VA,23224,(804) 204-9500
Performing Arts, Victoria Theatre ,138 N Main St, Dayton, OH,45402,(937) 228-7591
Session Photography, Victoria Vasilyeva Photography , , Raleigh, NC,27601,(919) 638-0764
Performing Arts, Viki Lynn's Schl of Dance ,611 Spinning Rd, Dayton, OH,45431,(937) 254-5770
Travel Services, Viking Travel ,1777 Fordham Blvd, Chapel Hill, NC,27514,(919) 968-4586
Limos, Vincent's Limousine Service of New York ,4206 Broadway, Astoria, NY,11103,(718) 729-0900
Art Schools, Vinings School of Art ,1675 Cumberland Pkwy SE, Smyrna, GA,30080,(678) 213-4278
Wine Bars, Vintage Liquor & Wine Bar ,3301 NE 1st Ave, Miami, FL,33137,(305) 514-0307
Performing Arts, Virginia Repertory Theatre ,114 W Broad St, Richmond, VA,23220,(804) 282-2620
Musical Instruments & Teachers, Virtuoso School of Music and Art ,17228 Lancaster Hwy, Charlotte, NC,28277,(704) 402-7955
Party & Event Planning, Vista Penthouse Ballroom & Catering ,27-05 39th Ave, Queens, NY,11101,(347) 536-3606
Wine Bars, Vita Vite Downtown ,313 W Hargett St, Raleigh, NC,27601,(919) 803-3156
Performing Arts, Viva Dance ,12381 Pearl Rd, Strongsville, OH,44136,(216) 361-1338
Dance Studios, Viva Dance Studio ,1541 E 38th St, Cleveland, OH,44114,(216) 361-1338
DJs, Vj Magic Myke ,533 W 156th St, New York, NY,10032,(212) 234-7906
Dance Studios, Volga Dance Academy ,3855 Presidential Pkwy, Atlanta, GA,30340,(706) 577-7314
Transportation, Vonlane ,3300 W Mockingbird Ln, Dallas, TX,75209,(214) 612-7234
Screen Printing/T-Shirt Printing, VR Crystals , , Grand Prairie, TX,75050,(817) 301-3781
Hotels, W Atlanta - Downtown ,45 Ivan Allen Jr Blvd, Atlanta, GA,30308,(404) 582-5800
Chinese Martial Arts, Wah Lum Kung Fu ,7113 Forest City Rd, Orlando, FL,32810,(407) 298-8186
Caterers, Waiter's Choice Catering ,8031 Arrowridge Blvd, Charlotte, NC,28273,(704) 393-0009
Airport Shuttles, Walker's Transportation & Shuttle Service , , Charlotte, NC,28278,(704) 618-3499
Music Venues, Warsaw at The Polish National Home ,261 Driggs Ave, Brooklyn, NY,11222,(212) 777-6800
Specialty Schools, Washington Photo Safari ,4545 Connecticut Ave, Washington, DC, DC,20008
Dance Studios, Wedding Day Dance ,520 8th Ave, New York, NY,10019,(917) 796-4960
Caterers, Wendy Krispin Caterer ,528 S Hall St, Dallas, TX,75226,(214) 748-5559
Dance Schools, West Chester Academy ,8107 Market Pl Dr, West Chester, OH,45069,(513) 829-2345
Dance Studios, West End Latin and Ballroom Dance Club ,2300 John Rolfe Pkwy, Richmond, VA,23233,(804) 377-6947
Performing Arts, Whirl & Twirl Square Dance Club ,2041 W State Rd 426, Oviedo, FL,32765,(407) 448-9021
DJs, Whirlin' Disc Sound , , Clarence, NY,14001,(716) 741-3139
Limos, White Glove Transportation Services ,100 Hartsfield Center Pkwy, Atlanta, GA,30354,(404) 832-5668
Limos, White Horse Transportation ,3900 Merton Ave, Raleigh, NC,27612,(919) 782-5893
DJs, White Rose Entertainment ,9401 American Eagle Way, Orlando, FL,32837,(407) 601-3765
Venues & Event Spaces, Whitehead Manor Conference Center ,5901 Sardis Rd, Charlotte, NC,28270,(704) 366-5640
Yoga, Wicked Fitness ,10764 Hwy 707, Myrtle Beach, SC,29588,(877) 751-2992
Florists, William Paul Floral Design ,3205 Peachtree Rd NE, Atlanta, GA,30305,(404) 383-1001
Beer, Wine & Spirits, Tower Beer, Wine & Spirits ,2161 Piedmont Rd NE, Atlanta, GA
Beer, Wine & Spirits, Green's Beverages ,737 Ponce De Leon Ave NE, Atlanta, GA,30306
Beer, Wine & Spirits, Terrific Package Store ,1899 Cheshire Bridge Rd N, Atlanta, GA,30324
Beer, Wine & Spirits, International Beverage ,6035 Peachtree Rd, Atlanta, GA,30341
Beer, Wine & Spirits, Happy's Liquor's Store ,3201 Tucker Norcross Rd, Tucker, GA,30084
Beer, Wine & Spirits, Mac's Beer and Wine Midtown Liquor ,21 Peachtree Pl NW, Atlanta, GA,30309
Beer, Wine & Spirits, Rocky's Liquor Store ,2088 Briarcliff Rd NE, Atlanta, GA,30329
Beer, Wine & Spirits, Bims Liquor Store ,1015 West Marietta St NW, Atlanta, GA,30318
Beer, Wine & Spirits, Green's Beverages ,2614 Buford Hwy NE, Atlanta, GA,30324
Beer, Wine & Spirits, Pitch & Putt Liquor Store ,1890 Johnson Rd NE, Atlanta, GA,30306
Beer, Wine & Spirits, H&F Bottle Shop ,2357 Peachtree Rd, Atlanta, GA,30305
Beer, Wine & Spirits, ABC Liquor Store ,2649 Appliance Ct, Raleigh, NC,27604
Beer, Wine & Spirits, ABC Stores Wake County ,7112 Sandy Forks Rd, Raleigh, NC,27609
Beer, Wine & Spirits, ABC Liquor Store ,4442-4498 Jonesville Rd, Wake Forest, NC,27587
Beer, Wine & Spirits, Total Wine ,4421 Six Forks Rd, Raleigh, NC,27609
Beer, Wine & Spirits, Team Beverage ,6901 Louisburg Rd, Raleigh, NC,27616
Beer, Wine & Spirits, ABC Stores Wake County ,2109 Avent Ferry Rd, Raleigh, NC,27606
Beer, Wine & Spirits, ABC Store ,9525 Strickland Rd, Raleigh, NC,27615
Beer, Wine & Spirits, ABC Stores Wake County ,7911 Acc Blvd, Raleigh, NC,27617
Beer, Wine & Spirits, ABC Stores Wake County ,1212 Wicker Dr, Raleigh, NC,27604
Beer, Wine & Spirits, Tasty Beverage Company ,327 W Davie St, Raleigh, NC,27601
Beer, Wine & Spirits, ABC Liquor Store ,4009 Davis Dr, Morrisville, NC,27560
Beer, Wine & Spirits, District Liquors ,1211 11th St NW, Washington, DC, DC
Beer, Wine & Spirits, Imperial Wine and Spirits ,620 12th St, Washington, DC, DC
Beer, Wine & Spirits, Savon Liquors ,1414 14th St NW, Washington DC, DC,20005
Beer, Wine & Spirits, Schneider's Of Capitol Hill ,300 Massachusetts Ave NE, Washington, DC, DC
Beer, Wine & Spirits, Universal Wine & Liquor ,2018 Florida Ave NW, Washington, DC, DC
Beer, Wine & Spirits,Daily 14 Liquors,1135 14th St NW, Washington, DC, DC
Beer, Wine & Spirits, Oasis Liquors ,1179 3rd St NE, Washington, DC, DC
Beer, Wine & Spirits, Capitol Fine Wine and Spirits ,415 H St NE, Washington, DC, DC
Beer, Wine & Spirits,A-1 Wine & Liquor,1420 K St NW, Washington, DC, DC
Beer, Wine & Spirits, H Street Fine Wines and Liquors ,475 H St NW, Washington, DC, DC
Beer, Wine & Spirits, Harvard Wine & Liquor Store ,2901 Sherman Ave NW, Washington, DC, DC
Beer, Wine & Spirits, Ocean Wine & Liquor ,273 Grand St, New York, NY,10002
Beer, Wine & Spirits, Warehouse Wines & Spirits ,735 Broadway, New York, NY,10003
Beer, Wine & Spirits, Liquors On Allen ,101 Allen St, New York, NY,10002
Beer, Wine & Spirits, Myrtle Wines & Spirits ,166 Myrtle Ave, New York, NY,11201
Beer, Wine & Spirits, Marks Wine & Spirits ,53 Mott St, New York, NY,10013
Beer, Wine & Spirits,R&S 49 Liquor Corp 新伊麗莎伯酒莊,92 Elizabeth St, New York, NY,10013
Beer, Wine & Spirits, Spirit Animal ,20 Broadway, Brooklyn, NY,11249
Beer, Wine & Spirits, Blanc & Rouge ,81 Washington St, Brooklyn, NY,11201
Beer, Wine & Spirits, York Cellars ,102 Jay St, Brooklyn, NY,11201
Beer, Wine & Spirits, La Vid Wine & Spirits ,315 Ave Of The Americas, New York, NY,10014
Beer, Wine & Spirits, Grand Wine & Spirits ,38 Grand St, Brooklyn, NY,11249
Beer, Wine & Spirits, Soho Wines & Spirits ,461 W Broadway, New York, NY,10012
Beer, Wine & Spirits, Varadero Liquor Store ,5717 NW 7th St, Miami, FL,33126
Beer, Wine & Spirits, Crown Wine & Spirits ,5749 Bird Rd, Miami, FL,33155
Beer, Wine & Spirits, Big Game Liquors ,930 S Le Jeune Rd, Coral Gables, FL,33134
Beer, Wine & Spirits, Crown Wine & Spirits ,2046 SW 57th Ave, Miami, FL,33155
Beer, Wine & Spirits, Deco Liquors ,7271 NW 36th St, Miami, FL,33166
Beer, Wine & Spirits, Total Wine & More ,1635 NW 107th Ave, Doral, FL,33172
Beer, Wine & Spirits, Crown Wine & Spirits ,1590 S Dixie Hwy, Coral Gables, FL,33146
Beer, Wine & Spirits, Bird Road Liqours ,6722 Bird Rd, Miami, FL,33155
Beer, Wine & Spirits, O J Liquors ,8771 SW 24th St, Miami, FL,33165
Beer, Wine & Spirits,MB 2 Liquor Wine & beer,3131 NE 7th Ave, Miami, FL,33137
Beer, Wine & Spirits, Liberty City Liquors ,5691 NW 17th Ave, Miami, FL,33142
Beer, Wine & Spirits, Campus Liquor ,2465 N High St, Columbus, OH,43202
Beer, Wine & Spirits, ABC Liquor ,1571 E Dublin Granville Rd, Columbus, OH,43229
Beer, Wine & Spirits, Arena Wine and Spirits ,492 Armstrong St, Columbus, OH,43215
Beer, Wine & Spirits, Palmer's Beverage Center ,3375 Indianola Ave, Columbus, OH,43214
Beer, Wine & Spirits,14-0 Express Carryout,355 E Hudson St, Columbus, OH,43202
Beer, Wine & Spirits, The Barrel & Bottle ,59 Spruce St, Columbus, OH,43215
Beer, Wine & Spirits, Chateau Wine and Spirits ,2131 Polaris Pkwy, Columbus, OH,43240
Beer, Wine & Spirits, Perfect Pour Beverage Company ,2827 Festival Ln, Dublin, OH,43017
Beer, Wine & Spirits, Northwest Wine & Spirits ,821 Bethel Rd Olentangy Plz, Columbus, OH,43214
Beer, Wine & Spirits,1837 Wine & Spirits Emporium,1383 East Johnstown Rd, Gahanna, OH,43230
Beer, Wine & Spirits, Kroger Liqour Store ,1300 N High St, Columbus, OH,43201
Beer, Wine & Spirits, Middle West Spirits ,1230 Courtland Ave, Columbus, OH,43201
Beer, Wine & Spirits, Premier Fine Wine And Spirits ,174 Yale St, Houston, TX,77007
Beer, Wine & Spirits, Spec's Wines, Spirits & Finer Foods ,2410 Smith St, Houston, TX
Beer, Wine & Spirits, Bottles Liquor Stores Texas ,2240 Navigation Blvd, Houston, TX,77003
Beer, Wine & Spirits, D & Q The Beer Station ,806 Richmond Ave, Houston, TX,77006
Beer, Wine & Spirits, Posh Liquors ,1602 San Jacinto St, Houston, TX,77002
Beer, Wine & Spirits, One Shot Liquor & Wine ,11790 Bellaire Blvd, Houston, TX,77072
Beer, Wine & Spirits, Barrels & Bottles ,3600 Kirby Dr, Houston, TX,77098
Beer, Wine & Spirits, Bargain Liquor Warehouse ,9352 Long Point Rd, Houston, TX,77055
Beer, Wine & Spirits, Richard's Liquors & Fine Wines ,1665 S Voss Rd, Houston, TX,77057
Beer, Wine & Spirits, WB Liquor & Wine ,1150 Bunker Hill Rd, Houston, TX,77055
Beer, Wine & Spirits, Ly's Liquor ,3914 Navigation Blvd, Houston, TX,77003
Beer, Wine & Spirits, Goody Goody Liquor ,3316 Oak Lawn Ave, Dallas, TX,75219
Beer, Wine & Spirits, Uptown Liquors ,3128 McKinney Ave, Dallas, TX,75204
Beer, Wine & Spirits, Spec's Wines, Spirits & Finer Foods ,8123 Preston Rd, Dallas, TX
Beer, Wine & Spirits, Corner Stop ,2203 Greenville Ave, Dallas, TX,75206
Beer, Wine & Spirits, Sigel's Fine Wines & Great Spirits ,5757 Greenville Ave, Dallas, TX,75206
Beer, Wine & Spirits, Top Liquor Beer And Wine ,7606 Greenville Ave, Dallas, TX,75231
Beer, Wine & Spirits, Sigel's Fine Wines & Great Spirits ,3209 N Fitzhugh Ave, Dallas, TX,75204
Beer, Wine & Spirits, Spec's Wines, Spirits & Finer Foods ,9500 N Central Expy, Dallas, TX
Beer, Wine & Spirits, Cork N Bottle ,5630 E Mockingbird Ln, Dallas, TX,75206
Beer, Wine & Spirits, Parkit Market Discount Liquor ,4724 Greenville Ave, Dallas, TX,75206
Beer, Wine & Spirits, Super Save Liquor ,2543 N Fitzhugh Ave, Dallas, TX,75204
Beer, Wine & Spirits, Monticello Liquor ,4855 N Central Expy, Dallas, TX,75205
Limos, Winn Transportation ,1831 Westwood Ave, Richmond, VA,23227,(804) 358-9466
Venues & Event Spaces, Winston Salem Fairgrounds ,421 W 27th St, Winston Salem, NC,27105,(336) 727-2236
Florists, Winterpast Flowers ,116 N Main St, Lowell, NC,28098,(704) 825-5172
Magicians, Wizardz Magic Theater ,1 Levee Way, Newport, KY,41072,(513) 784-6883
Comedy Clubs, Wizardz Magic Theater  Magic Show ,5678 Irlo Bronson Memorial Hwy 192, Kissimmee, FL,34746,(863) 307-9400
Breweries, Wooden Robot Brewery ,1440 S Tryon St, Charlotte, NC,28203,(980) 819-7875
Venues & Event Spaces, Woodhaven Party Hall ,63-36 Woodhaven Blvd, Queens, NY,11374,(646) 600-5373
Travel Agents, World Tours And Travel Inc ,37-12 75th St, Jackson Heights, NY,11372,(718) 200-2655
Travel Agents, World Tours And Travel Inc ,37-12 75th St, Jackson Heights, NY,11372,(718) 200-2655
Travel Agents, World Travel Mates ,7422 Carmel Executive Park Dr, Charlotte, NC,28226,(704) 697-1500
Toy Stores, Wunderground Magic Shop ,16 S Main St, Clawson, MI,48017,(248) 280-5925
Dance Schools, Wyoming Fine Arts Center ,322 Wyoming Ave, Wyoming, OH,45215,(513) 948-1900
Dance Studios, Xplosive Dance Academy ,6557 Hazeltine National Dr, Orlando, FL,32822,(407) 440-4616
Trainers, Xpose Fitness ,1700 Joan Ave, Parkville, MD,21234,(410) 661-1301
Screen Printing/T-Shirt Printing, Xpressyourself Sportswear ,6511 Hyden Dr, Arlington, TX,76001,(817) 992-5841
Taxis, Yellow Cab ,3941 W Pensacola St, Tallahassee, FL,32304,(850) 999-9999
Yoga, Yoga Girls By Allure ,1315 Edgewater Dr, Orlando, FL,32804,(407) 730-9642
Yoga, Yoga Parkside ,2 Wallace Ave, Buffalo, NY,14214,(716) 772-8092
Dance Studios, You Should Be Dancing...! ,37 W 26th St, New York, NY,10001,(212) 244-0011
Gyms, YouFit Gyms ,13583 Midlothian Turnpike, Midlothian, VA,23113,(804) 419-9533
Party & Event Planning, Your Event Source ,100 Forsyth Hall Dr, Charlotte, NC,28273,(704) 332-2222
Dance Schools, Your First Dance by Bud Walters ,1547 Spring Lawn Ave, Cincinnati, OH,45223,(513) 542-4064
Photo Booth Rentals, Your Photo Booth & Event Decor Rental , , Irwin, PA,15642,(412) 443-1843
DJs, Yourday Entertainment ,3126 W Cary St, Richmond, VA,23221,(804) 536-1055
DJs, Yourday Entertainment ,3126 W Cary St, Richmond, VA,23221,(804) 536-1055
Magicians, Z Entertainment ,1414 Schley Pl, McDonough, GA,30252,(706) 248-0844
Magicians, Z Entertainment ,1414 Schley Pl, McDonough, GA,30252,(706) 248-0844
Performing Arts, Zaharas Tangled Web , , Cincinnati, OH,45236,(513) 515-9695
DJs, Zegi , , Atlanta, GA,30312,(404) 590-0807
DJs, Zegi , , Atlanta, GA,30312,(404) 590-0807
Photo Booth Rentals, ZimZoom Photo Booth ,121 South Estes Dr, Chapel Hill, NC,27514,(919) 670-0250
Hair Stylists, Zoltana Juhasz ,9734 Deer Lake Ct, Jacksonville, FL,32246,(760) 424-6201
Party Equipment Rentals, Zooligans Bouncers ,108 Dustin St, Easley, SC,29642,(864) 508-6620
Pole Dancing Classes,1-on-1 Pole Dance & Fitness Atl,3001 Ne Expy, Atlanta, GA,30341,(678) 995-5302
Performing Arts,123 Dance Studio,3459 Amelia Dr, Orchard Park, NY,14127,(716) 822-0299
Bars,1306 Miami,1306 N Miami Ave, Miami, FL,33136,(305) 377-2277
Blow Dry/Out Services,1890 Blow-Dry-Bar,14825 Ballantyne Village Way, Charlotte, NC,28277,(704) 496-9412
Lounges,1942DC,1942 9th St NW, Washington, DC, DC,20001
Makeup Artists,23rd Street Hair Salon,248 E 23rd St, New York, NY,10010,(646) 862-9323
Performing Arts,3D Motion Dance Center,506 S Hunt Club Blvd, Apopka, FL,32703,(407) 786-0269
Travel Services,4 Moons Travel,1228 Guilford College Rd, Jamestown, NC,27282,(336) 299-4164
Art Galleries,78th Street Studios,1300 W 78th St, Cleveland, OH,44102,(216) 939-0533
Video/Film Production,7L Studios,2821 Meadowlark Dr, Mesquite, TX,75149,(972) 207-3835
Magicians,A2 Magic,2755 Kimberley Rd, Ann Arbor, MI,48104,(734) 996-2442
Hair Salons,Avenue 42,16 E Main St, Richmond, VA,23219,(804) 303-3139
Session Photography,Baby On Board 3D/4D Ultrasound Studio,2100 E Stan Schlueter Lp, Killeen, TX,76542,(254) 432-4733
Party & Event Planning,Bay 7,324 Blackwell St, Durham, NC,27701,(919) 278-2713
Customized Merchandise,Cherie4Art, , Arlington, TX,76011,(214) 702-6872
Cycling Classes,Cycle614,1636 Northwest Blvd, Columbus, OH,43212,(614) 674-6590
Dance Studios,Dance 101,855 Emory Point Dr, Atlanta, GA,30329,(404) 545-8048
Dance Studios,Dance 4u Dance Center,101 East Laurel Ave, Cheltenham Township, PA,19012, 
Taxis,Dial 7 Car & Limousine Service,43-23 35th St, Long Island City, NY,11101,(212) 777-7777
Florists,Fiore x 7 Flower Bar,6300 Preston Rd, Plano, TX,75024,(972) 922-7189
Gyms,Fitness Rx 24/7 Wellness & Performance Studio,401 Log Canoe Cir, Stevensville, MD,21666,(410) 643-3130
Dance Studios,Hooked On2,13019 SW 112th St, Miami, FL,33186,(786) 234-3776
Venues & Event Spaces,LOFT5900,5900 Princess Garden Pkwy, Lanham, MD,20706,(240) 264-5900
Photographers,M2M Weddings,700 E Main St, Richmond, VA,23218,(804) 505-0782
Photographers,M2M Weddings,700 E Main St, Richmond, VA,23218,(804) 505-0782
Blow Dry/Out Services,MyDry Blowout Bar - 3rd Street,2403-B 3rd St S, Jacksonville Beach, FL,32250,(904) 372-9590
Magicians,P3 Magic Theater,2575 N High St, Columbus, OH,43202, 
Photo Booth Rentals,Pgh 360,2134 Lowrie St, Pittsburgh, PA,15212,(412) 400-3991
Caterers,Prime33 Banquet Hall,3323 Merritt Ave, Bronx, NY,10475,(212) 433-2760
Community Centers,Project 658,3646 Central Ave, Charlotte, NC,28205,(704) 733-9934
Venues & Event Spaces,Room6Twelve,2177 Fairburn Rd, Douglasville, GA,30135,(770) 280-2612
Hair Salons,Salon 718 - Vanderbilt,610 Vanderbilt Ave, Brooklyn, NY,11238,(718) 717-2557
Hair Salons,Salon One 21,1411 Ellis Ave, Fort Worth, TX,76164,(817) 831-1008
Performing Arts,Shea's 710 Theatre,710 Main St, Buffalo, NY,14202,(716) 847-1410
Yoga,Studio 11,2253 W 14th St, Cleveland, OH,44113,(216) 472-3611
Venues & Event Spaces,Studio 17 Bushwick,1780 Broadway, Brooklyn, NY,11207,(347) 221-1880
Yoga,Studio 34,4522 Baltimore Ave, Philadelphia, PA,19143,(215) 387-3434
Venues & Event Spaces,Studio 52,1508 Okie St NE, Washington, DC, DC,20002
Yoga,Studio1831,1831 Brandywine St, Philadelphia, PA,19130,(215) 665-1991
Fitness & Instruction,SWEAT 716,145 Swan St, Buffalo, NY,14203,(716) 217-0770
Photo Booth Rentals,TapSnap 1130, , Mobile, AL,36601,(251) 554-6944
Party Characters,Tc Special Entertainment 4U,826 Tonawanda St, Buffalo, NY,14207,(716) 603-0388
Bars,Terraza 7,40-19 Gleane St, Elmhurst, NY,11373,(347) 808-0518
Performing Arts,The Mastersons - 21st Century Magic, , Cynthiana, KY,41031,(859) 588-5388
Venues & Event Spaces,The Stockroom At 230,230 Fayetteville St, Raleigh, NC,27601,(919) 459-3212
Venues & Event Spaces,Venue @1801,1701 W Trade St, Charlotte, NC,28216,(704) 492-0069
Venues & Event Spaces,Venue @1801,1701 W Trade St, Charlotte, NC,28216,(704) 492-0069
Venues & Event Spaces,Venue @1801,1701 W Trade St, Charlotte, NC,28216,(704) 492-0069
Makeup Artists,VickyC5,12 W 32nd St, New York, NY,10001,(212) 695-7900